2019rank,name,url,linkedin,city,state,country,phone,interview,growth,leadinvestor,july2018employees,feb2019employees,6monthincrease
1,Pitchbook,Pitchbook.com,https://www.linkedin.com/company/pitchbook-data-inc-,Seattle,WA,,,,,Morningstar,15,594,3860.00%
2,Repsly,repsly.com,http://www.linkedin.com/company/salespod,Boston,MA,,617.459.9012,,http://www.total-croatia-news.com/business/19070-croatian-startup-repsly-expecting-5-million-dollars-in-revenue-in-2017,LaunchPad,2,67,3250.00%
3,1Password,1password.com,https://www.linkedin.com/company/summit-web-design-au,,,,,,,,2,59,2850.00%
4,Magnitude Software,magnitude.com,https://www.linkedin.com/company/magnitude,Austin,TX,,,,,,12,250,1983.33%
5,MailerLite,mailerlite.com,https://www.linkedin.com/company/marketpro-biz,Vilnius,LT,,,,,,2,40,1900.00%
6,BlueHornet,bluehornet.com,https://www.linkedin.com/company/bluehornet,San Diego,CA,,,,,,22,395,1695.45%
7,Drift,drift.com,https://www.linkedin.com/company-beta/6636997/,Boston,MA,,855-266-1567,,,,23,294,1178.26%
8,ownCloud,owncloud.org,https://www.linkedin.com/company/owncloud/,Nuremberg,,,888-2595-888,,,General Catalyst,6,51,750.00%
9,iContact,icontact.com,http://www.linkedin.com/company/icontact,Morrisville,NC,,,,,,30,205,583.33%
10,Xinet,xinet.com,https://www.linkedin.com/company-beta/5293063/,Monterrey,,,510.845.0555,,,,9,57,533.33%
11,AvidXchange,avidxchange.com,http://www.linkedin.com/company/avidxchange-inc.,Charlotte,NC,,704-971-8160,,,Bain/Charlotte,178,922,417.98%
12,SendinBlue,sendinblue.com,https://www.linkedin.com/company/sendinblue,Paris,FRA,,,,,,32,162,406.25%
13,HelloSign,hellosign.com,http://www.linkedin.com/company/hellofax,San Francisco,CA,,415-766-0273,,,,35,117,234.29%
14,Sendoso,sendoso.com,https://www.linkedin.com/company/sendoso,San Francisco,CA,,,,,,31,98,216.13%
15,Framer Studio,framer.com,https://www.linkedin.com/company/framer,Amsterdam,NET,,,,,,44,129,193.18%
16,MeisterTask,meistertask.com,https://www.linkedin.com/company/meisterlabs-gmbh,Wilmington,DE,,415-633-6050,,,,40,113,182.50%
17,pimcore,pimcore.org,https://www.linkedin.com/company/pimcore,Salzburg,,,43 662 876606230,,,,18,47,161.11%
18,Mindmatrix,mindmatrix.net,http://www.linkedin.com/company/mindmatrix-inc,Pittsburgh,PA,,412-381-0230,,,,26,66,153.85%
19,SimpleLegal,simplelegal.com,http://www.linkedin.com/company/simplelegal,,,,,,,Y Combinator,25,61,144.00%
20,Slice Intelligence,intelligence.slice.com,https://www.linkedin.com/company/slice-intelligence,Palo Alto,CA,,206-390-6637,,,,35,84,140.00%
21,Highspot,highspot.com,http://www.linkedin.com/company/highspot,Seattle,WA,,,,http://www.redherring.com/finance/highspot-closes-9-6m-series-round/,Shasta/Madrona,68,158,132.35%
22,Gather,gatherhere.com,http://www.linkedin.com/company/gather-technologies,Atlanta,CA,,,,,,89,197,121.35%
23,Adverity,adverity.com,https://www.linkedin.com/company/adverity-gmbh,Vienna,AUS,AUS,,,,25,33,72,118.18%
24,GoAnimate,goanimate.com,http://www.linkedin.com/company/goanimate,San Mateo,CA,,,,,,27,58,114.81%
25,Humanity,humanity.com,http://www.linkedin.com/company/humanity-inc,San Francisco,CA,,415.578.7848,,,,150,300,100.00%
26,Lessonly,lessonly.com,https://www.linkedin.com/company/lesson-ly,Indianapolis,IN,,317.469.9194,,,OpenView/Allos,66,128,93.94%
27,Workboard,workboard.com,http://www.linkedin.com/company/workboard-inc-,Redwood City,CA,,650.464.3677,,,,25,48,92.00%
28,Clearbit,clearbit.com,http://www.linkedin.com/company/clearbit,San Francisco,CO,,555-555-5555,https://www.saastr.com/saastr-podcast-084-alex-maccaw-founder-ceo-clearbit-on-why-the-future-of-sales-is-personalization/,,,36,68,88.89%
29,Amplitude Analytics,amplitude.com,https://www.linkedin.com/company/amplitude-analytics/,San Francisco,CA,USA,510-927-1100,,,Benchmark,174,321,84.48%
30,Outreach.io,outreach.io,https://www.linkedin.com/company/outreach-saas/,Seattle,WA,,888-938-7356,,,,291,523,79.73%
31,MarketMuse,MarketMuse.com,https://www.linkedin.com/company/marketmuse,Boston,MA,,,,,,25,46,84.00%
32,Funnel.io,funnel.io,https://www.linkedin.com/company/funnel-io,Cambridge,MA,,888-457-4595,,,,51,92,80.39%
33,AppZen,appzen.com,https://www.linkedin.com/company/appzen/,Santa Clara,CA,USA,408-647-5253,,,Redpoint,65,115,76.92%
34,TravelPerk,travelperk.com,https://www.linkedin.com/company/travelperk/,Barcelona,SPA,SPA,34 932 20 91 22,,,Spark/LocalGlobe,104,183,75.96%
35,15Five,15five.com,http://www.linkedin.com/company/15five,San Francisco,CA,,415.967.3483,https://www.saastr.com/saastr-podcast-085-david-hassell-founder-ceo-15five-on-how-saas-startup-founders-should-view-competition/,,,42,74,76.19%
36,Cosential,Cosential.com,https://www.linkedin.com/company/cosential-inc-,Austin,TX,,,,,,50,88,76.00%
37,LaunchDarkly,LaunchDarkly.com,https://www.linkedin.com/company/launchdarkly,Oaklan,CA,USA,,https://www.saastr.com/saastr-podcast-122-edith-harbaugh-founder-ceo-launchdarkly-on-how-to-successfully-scale-the-1-10-customer-phase-of-any-saas-business/,,,55,95,72.73%
38,Seismic,seismic.com,http://www.linkedin.com/company/seismic-software,San Diego,CA,,858.481.8746,,,GA/Jackson Square,335,560,67.16%
39,Dataquest,dataquest.io,https://www.linkedin.com/company/dataquest-io,San Francisco,CA,,,,,,25,43,72.00%
40,Keen IO,keen.io,http://www.linkedin.com/company/keen-io,San Francisco,CA,,,,,,59,99,67.80%
41,Postman,getpostman.com,https://www.linkedin.com/company/postman-api-tools-,San Francisco,CA,,,,,,70,116,65.71%
42,Doodle,doodle.com,https://www.linkedin.com/company/doodle-ag,Zurich,SUI,,415.841.9521,,,,37,61,64.86%
43,Gong.io,gong.io,https://www.linkedin.com/company/gong-io/,Palo Alto,CA,,,,https://techcrunch.com/2017/07/12/gong-an-ai-based-language-tool-to-help-sales-and-customer-service-reps-nabs-20m/,,79,128,62.03%
44,Easy Projects,easyprojects.net,http://www.linkedin.com/company/logic-software-inc-,Toronto,ON,,888.261.9878,,,,25,40,60.00%
45,Databricks,databricks.com,http://www.linkedin.com/company/databricks,San Francisco,CA,,866-330-0121,,,NEA/Andressen,421,650,54.39%
46,WhiteSource Software,whitesourcesoftware.com,https://www.linkedin.com/company/white-source,New York,NY,,917.688.4142,,,83North/Microsoft,87,138,58.62%
47,Mixmax,Mixmax.com,http://www.linkedin.com/company/mixmax-inc-,San Francisco,CA,,415-212-9070,,,,34,54,58.82%
48,HouseCall Pro,housecallpro.com,https://www.linkedin.com/company/housecall,San Diego,CA,,877-944-9010,,,,113,176,55.75%
49,NinjaCat,ninjacat.io,http://www.linkedin.com/company/ninjacat,New York,NY,,(855) 646-5222,,,Bootstrapped,39,61,56.41%
50,Hiver,hiverhq.com,https://www.linkedin.com/company/grexit,Palo Alto,CA,,,,,,34,53,55.88%
51,Propellerhead Software,propellerheads.se,https://www.linkedin.com/company-beta/6428902/,Stockholm,SWE,,650.378.8537,,,,36,56,55.56%
52,ClickFunnels,clickfunnels.com,https://www.linkedin.com/company/clickfunnels,Eagle,ID,,,,,,169,259,53.25%
53,Proposify,proposify.biz,https://www.linkedin.com/company/proposify,Nova Scotia,CA,,902-441-0318,,,,40,62,55.00%
54,Culture Amp,cultureamp.com,https://www.linkedin.com/company/cultureamp,Melbourne,VIC,,415 636 8011,,,Sapphire/index,224,339,51.34%
55,Avaamo,Avaamo.com,http://www.linkedin.com/company/avaamo,Los Altos,CA,,,,,,32,49,53.13%
56,FullStory,fullstory.com,http://www.linkedin.com/company/fullstory,Atlanta,GA,,,,https://www.bizjournals.com/atlanta/news/2017/05/18/fullstory-raises-15-million-from-salesforce-plans.html,Google,96,145,51.04%
57,StreakCRM,streak.com,https://www.linkedin.com/company/streak-com,San Francisco,CA,,,,,Y Combinator,29,44,51.72%
58,AppCues,appcues.com,http://www.linkedin.com/company/appcues,Boston,MA,USA,,,,,45,68,51.11%
59,GitLab,gitlab.com,http://www.linkedin.com/company/gitlab-com,San Francisco,CA,,415.829.2854,,,,307,454,47.88%
60,ZoomInfo,zoominfo.com,http://www.linkedin.com/company/zoominfo,Waltham,MA,,781.693.7500,,,,334,492,47.31%
61,Dataiku,dataiku.com,https://www.linkedin.com/company/dataiku,Paris,FRA,,646-568-7477,,,FirstMark/Alven,158,235,48.73%
62,Recruitee,recruitee.com,https://www.linkedin.com/company/recruitee,Amsterdam,NET,,31 611-036-949,,,,33,49,48.48%
63,Talkdesk,talkdesk.com,http://www.linkedin.com/company/talkdesk,San Francisco,CA,,888-743-3044,,,Salesforce/Storm,333,482,44.74%
64,skilljar,skilljar.com,http://www.linkedin.com/company/skilljar,Seattle,WA,,,,,,49,72,46.94%
65,Yes LifeCycle Marketing,yeslifecyclemarketing.com,https://www.linkedin.com/company/yes-lifecycle-marketing,Chicago,IL,,,,,,140,204,45.71%
66,iterable,iterable.com,http://www.linkedin.com/company/iterable,San Francisco,CA,,,,http://www.startuphero.com/iterable-raises-23-million-to-help-companies-like-yelp-and-zillow-reach-users/,500 Startups/Index,135,196,45.19%
67,JumpCloud,jumpcloud.com,https://www.linkedin.com/company/jumpcloud,Boulder,CO,USA,,,,Foundry,79,115,45.57%
68,Wallarm,wallarm.com,https://www.linkedin.com/company/wallarm/,Menlo Park,CA,USA,415) 940-7077,,,Partech,37,54,45.95%
69,Pendo.io,pendo.io,http://www.linkedin.com/company/pendo-io,Raleigh,NC,,,https://www.saastr.com/saastr-podcast-118-todd-olson-founder-ceo-pendo-on-why-you-have-to-hire-for-ahead-of-where-you-are-now/,,Meritech/Battery,201,289,43.78%
70,MobileWalla,MobileWalla.com,https://www.linkedin.com/company/mobilewalla/,New York,NY,,,,,,58,84,44.83%
71,eloomi,eloomi.com,https://www.linkedin.com/company/eloomi,S,,,45 3131 6060,,,,36,52,44.44%
72,smartCat,smartcat.ai,https://www.linkedin.com/company/smartcatai/,San Francisco,CA,,,,,,82,118,43.90%
73,JotForm,jotform.com,http://www.linkedin.com/company/jotform,San Francisco,CA,,555.555.5555,,,,87,125,43.68%
74,Iluminate Education,illuminateed.com,http://www.linkedin.com/company/illuminate-education-inc.,Irvine,CA,,,,,,216,307,42.13%
75,Wishpond,wishpond.com,https://www.linkedin.com/company/wishpond,Vancouver,BC,,800-921-0167,,,,62,89,43.55%
76,ServiceTitan,ServiceTitan.com,http://www.linkedin.com/company/servicetitan,Glendale,CA,,,,,ICONIQ/Bessemer,420,586,39.52%
77,MURAL,mural.co,https://www.linkedin.com/company/mural.co/,San Francisco,CA,,,,,,77,110,42.86%
78,Serpstat,serpstat.com,https://www.linkedin.com/company/serpstat,Odesa,UKR,UKR,,,,Digital Future,63,90,42.86%
79,PandaDoc,pandadoc.com,https://www.linkedin.com/company/pandadoc,San Francisco,CA,,415-670-9712,,,Rembrandt/Altos,138,196,42.03%
80,Showpad,showpad.com,http://www.linkedin.com/company/showpad,Ghent,,,415-800-2033,,,,282,396,40.43%
81,Tailwind,tailwindapp.com,http://www.linkedin.com/company/tailwindapp,Oklahoma City,OK,,,,,,45,64,42.22%
82,Databox,Databox.com,https://www.linkedin.com/company/databoxhq,Cambridge,MA,,,,,,38,54,42.11%
83,Datadog,datadoghq.com,http://www.linkedin.com/company/datadog,New York,NY,,866-329-4466,https://www.saastr.com/saastr-podcast-117-amit-agarwal-chief-product-officer-datadog-discusses-how-why-when-to-launch-a-second-saas-product/,,ICONIQ/OpenView,688,936,36.05%
84,Mailgun,mailgun.com,https://www.linkedin.com/company/mailgun-inc,San Francisco,CA,,,,,,65,92,41.54%
85,Podium,podium.com,https://www.linkedin.com/company/repdrive,Lehi,UT,,(888) 552-7539,,http://nathanlatka.com/thetop524/,Y Combinator/Accel,310,431,39.03%
86,Guild Education,guildeducation.com,https://www.linkedin.com/company/guild-education/,Denver,CO,USA,(720) 709-2871,,,Bessemer,145,203,40.00%
87,Slidely + Promo,slide.ly,https://www.linkedin.com/company/easyhi,Tel-Aviv,ISR,ISR,,,https://www.forbes.com/sites/mnewlands/2017/06/27/how-this-ceos-video-creation-app-grew-to-9-million-arr-in-its-first-year/#583fc9adc2e9,,44,62,40.91%
88,Monday.com,monday.com,https://www.linkedin.com/company/dapulselabs,Tel Aviv,ISR,,(201) 778-4567,,,,128,179,39.84%
89,ChargeBee,Chargebee.com,http://www.linkedin.com/company/chargebee,,,,,,,,160,223,39.38%
90,Applitools,Applitools.com,https://www.linkedin.com/company/applitools/,San Mateo,CA,USA,650-288-7006,,,Sierra,68,95,39.71%
91,AirParrot,airsquirrels.com,http://www.linkedin.com/company/squirrels-llc,North Canton,OH,,855.207.0927,,,,30,42,40.00%
92,Auction.com,auction.com,https://www.linkedin.com/company/auction.com,Irvine,CA,,949-790-6400,,,,294,404,37.41%
93,WorkJam,workjam.com,https://www.linkedin.com/company/workjam,Montreal,QC,CAN,,,,,95,132,38.95%
94,Envoy,envoy.com,https://www.linkedin.com/company/we-are-envoy,San Francisco,CA,,(415) 636_6605,,,,127,176,38.58%
95,salesmanago,salesmanago.com,http://www.linkedin.com/company/salesmanago-marketing-automation,Krakow,POL,,,,,,144,199,38.19%
96,Loopio,loopio.com,https://www.linkedin.com/company/loopio,Toronto,ON,,844-456-6746,,,,72,100,38.89%
97,LogicMonitor,logicmonitor.com,http://www.linkedin.com/company/logicmonitor,Santa Barbara,CA,,805-617-3884,,,,220,302,37.27%
98,HG Data,Hgdata.com,https://www.linkedin.com/company/hg-data/,Santa Barbara,CA,,,,,,97,134,38.14%
99,Kindful,kindful.com,http://www.linkedin.com/company/trail,Nashville,TN,,888-854-0933,,,,31,43,38.71%
100,G2 Crowd,g2crowd.com,https://www.linkedin.com/company/g2-crowd/,Chicago,IL,USA,847.748.7559,,,Accel,232,317,36.64%
101,Xpenditure,xpenditure.com,https://www.linkedin.com/company/xpenditure,Mechelen,,,32 14 48 02 09,,,,131,180,37.40%
102,ClearCompany,clearcompany.com,https://www.linkedin.com/company/clearcompany-talent-management-software,Boston,MA,,617.938.3801,,,SaaS Capital,112,154,37.50%
103,Punchh,Punchh.com,https://www.linkedin.com/company/punchh-inc-,,,,,,,Cervin/Green Span,143,196,37.06%
104,Graduway,Graduway.com,https://www.linkedin.com/company/graduway,Tel-Aviv,ISR,ISR,,,,,80,110,37.50%
105,Deputy,deputy.com,https://www.linkedin.com/company/deputyapp/,Surry Hills,NSW,,61.4.2522.0047,https://www.forbes.com/sites/richwinley/2016/09/06/how-to-walk-away-from-a-job-to-chase-a-dream/#5c122cb078e5,,OpenView,198,270,36.36%
106,AgileCRM,agilecrm.com,https://www.linkedin.com/company/agile-crm,San Mateo,CA,,952-960-1377,,,,181,246,35.91%
107,Mode Analytics,modeanalytics.com,http://www.linkedin.com/company/mode-analytics,San Francisco,CA,,415.689.7436,,,,197,267,35.53%
108,TeamSupport,teamsupport.com,https://www.linkedin.com/company/teamsupport-com/,Dallas,TX,,214.556.4493,,,,38,52,36.84%
109,HG Focus,hgdata.com,http://www.linkedin.com/company/hg-data,Goleta,CA,,805-880-1100,,,,97,132,36.08%
110,GetAccept,getaccept.com,https://www.linkedin.com/company/getaccept,Palo Alto,CA,,,,,,30,41,36.67%
111,Logz.io,logz.io,http://www.linkedin.com/company/logz-io,el Aviv-Yafo,,,,,,OpenView/83North,112,152,35.71%
112,Collibra,Collibra.com,https://www.linkedin.com/company/collibra/,Brussels,BEL,,,,,,325,435,33.85%
113,IntelligenceBank DAM,intelligencebank.com,http://www.linkedin.com/company/intelligencebank-pty-ltd,Southbank,VIC,,855 241 0150,,,,33,45,36.36%
114,TapClicks,tapclicks.com,https://www.linkedin.com/company/tapclicks,San Jose,CA,,866-626-1088,,,SaaS Capital,78,106,35.90%
115,Dialpad,dialpad.com,http://www.linkedin.com/company/dialpad,San Francisco,CA,,415.579.1222,,,Amasia/GV,246,330,34.15%
116,Chargify,chargify.com,http://www.linkedin.com/company/chargify.com,San Antonio,TX,,,,,,48,65,35.42%
117,Hubstaff,hubstaff.com,https://www.linkedin.com/company/hubstaff,Indianapolis,IN,USA,,,https://hubstaff.baremetrics.com/stats/arr,,86,116,34.88%
118,FogCreek,fogcreek.com,http://www.linkedin.com/company/fog-creek-software,New York,NY,,866.364.2733,,,,60,81,35.00%
119,Smarsh,smarsh.com,https://www.linkedin.com/company/smarsh/,Portland,OR,,866.762.7741,,,,271,361,33.21%
120,Looker,looker.com,http://www.linkedin.com/company/looker,Santa Cruz,CA,,831-226-3060,,,Meritech/Kleiner,503,661,31.41%
121,Bizzabo,bizzabo.com,http://www.linkedin.com/company/bizzabo,New York,NY,,646-517-1135,,,Danny Tocatly,90,121,34.44%
122,Gusto,gusto.com,https://www.linkedin.com/company/gustohq,San Francisco,CA,,855-418-1591,,,Y Combinator/GC,625,814,30.24%
123,Umbraco,umbraco.com,https://www.linkedin.com/company/umbraco,Odense,,,45 70 26 11 62,,,,35,47,34.29%
124,Allego,allego.com,http://www.linkedin.com/company/allego-inc-,Needham,MA,,781-400-2035,,,,74,99,33.78%
125,SimScale,simscale.com,https://www.linkedin.com/company/simscale-gmbh,Bayern,GER,,903 781 1561,,,Union Square,56,75,33.93%
126,Tradeshift,tradeshift.com,http://www.linkedin.com/company/tradeshift,San Francisco,CA,,800.381.3585,,https://techcrunch.com/2016/06/09/tradeshift-raises-75m-series-d-to-expand-its-invoicing-platform-to-new-verticals/,Wipro,599,777,29.72%
127,Cogito,Cogitocorp.com,http://www.linkedin.com/company/cogito-corp-,Boston,MA,,,https://theamericanceo.com/2017/06/14/ceo-interview-joshua-feast-cogito/,,OpenView/Romulus,107,142,32.71%
128,Skillshare,skillshare.com,https://linkedin.com/company/skillshare-com,New York,NY,,,,,,215,283,31.63%
129,CloudFlare,cloudflare.com,http://www.linkedin.com/company/cloudflare-inc.,San Francisco,CA,,888-993-5273,,,NEA/Venrock,689,884,28.30%
130,Lucid Software,golucid.co,https://www.linkedin.com/company/lucidsoftware,South Jordan,UT,USA,,,2000,500 Startups/Spectrum,357,466,30.53%
131,BrightLocal,brightlocal.com,http://www.linkedin.com/company/bright-local-seo,Lewes,,,,,,,46,61,32.61%
132,Alteryx,alteryx.com,http://www.linkedin.com/company/alteryx,Irvine,CA,,714.516.2400,,,Insight/Sapphire,742,947,27.63%
133,ExecVision,execvision.com,https://www.linkedin.com/company/execvision,Arlington,VA,,,,,,31,41,32.26%
134,Practice Ignition,practiceignition.com,https://www.linkedin.com/company/practice-ignition/,Sydney,NSW,AUS,4.24E+08,,,Equity VP,31,41,32.26%
135,Virtru,virtru.com,http://www.linkedin.com/company/virtru,Washington,DC,,202.549.3328,,,Bessemer,85,112,31.76%
136,Rootstock,rootstock.com,http://www.linkedin.com/company/rootstock-software,San Ramon,CA,,888.524.0123,,,,63,83,31.75%
137,Kimble PSA,kimbleapps.com,https://www.linkedin.com/company/kimble-applications/,London,UK,,435.200.1309,,,Sussex Place,89,117,31.46%
138,LiveChat,livechatinc.com,http://www.linkedin.com/company/livechat,Boston,MA,,919-636-4677,,,,99,130,31.31%
139,Pantheon,pantheon.io,http://www.linkedin.com/company/pantheon-systems-inc,San Francisco,CA,,39 06 6830 0230,,,,130,170,30.77%
140,Webflow,webflow.com,http://www.linkedin.com/company/webflow-inc-,Alkmaar,,,855-806-6643,,,,64,84,31.25%
141,exponea,exponea.com,https://www.linkedin.com/company/exponea,London,UK,UK,44 20 3086 8894,,,LRJ Capital,178,232,30.34%
142,Pax8,pax8.com,https://www.linkedin.com/company/pax8/,Denver,CO,USA,855-884-7298,,,PV,196,255,30.10%
143,Algolia,algolia.com,https://www.linkedin.com/company/algolia,San Francisco,CA,USA,,,,Y Combinator/Accel,250,324,29.60%
144,memoQ,memoq.com,https://www.linkedin.com/company/kilgray-translation-technologies,Gyula,Bekes,,36 (1) 808-8313,,,,52,68,30.77%
145,ZAP,zapbi.com,http://www.linkedin.com/company/zapbi,London,UK,,,,,,203,263,29.56%
146,Asana,asana.com,http://www.linkedin.com/company/asana,San Francisco,CA,,415.525.3888,,,Altman/Thiel,405,519,28.15%
147,OneLogin,onelogin.com,http://www.linkedin.com/company/onelogin,San Francisco,CA,,415.645.6830,,,,200,259,29.50%
148,Thycotic Secret Server,thycotic.com,http://www.linkedin.com/company/thycotic-software-ltd,Washington,DC,,202.223.6680,,,Insight,251,324,29.08%
149,Total Expert,totalexpert.com,https://www.linkedin.com/company/total-expert/,Minneapolis,MN,USA,866-952-4606,,,Rally/Arthur,144,187,29.86%
150,Invoca,invoca.com,https://www.linkedin.com/company/invoca-com,Santa Barbara,CA,,,,,,143,185,29.37%
151,Call Box,callbox.com,http://www.linkedin.com/company/call-box-ci-,Dallas,TX,,,,,,136,176,29.41%
152,lucidworks,lucidworks.com,http://www.linkedin.com/company/lucidworks,San Francisco,CA,,120,,,,194,250,28.87%
153,CultureIQ,cultureiq.com,http://www.linkedin.com/company/cultureiq,New York,NY,,212.755.8633,,,,85,110,29.41%
154,CleverTap,clevertap.com,https://www.linkedin.com/company/clevertap/,Sunnyvale,CA,,,,,,75,97,29.33%
155,FieldEdge,fieldedge.com,https://www.linkedin.com/company/desco-llc/,Atlanta,GA,USA,8.00E+09,,,Pacific Lake,135,174,28.89%
156,DialSource,dialsource.com,https://www.linkedin.com/company/dialsource,Sacramento,CA,,,,,,34,44,29.41%
157,PagerDuty,pagerduty.com,https://www.linkedin.com/company/pagerduty,San Francisco,CA,USA,,,,Y Combinator,439,556,26.65%
158,Pipefy,Pipefy.com,https://www.linkedin.com/company/pipefy/,San Francisco,CA,,,,,,135,173,28.15%
159,Bluecore,bluecore.com,https://www.linkedin.com/company/bluecore,New York,NY,USA,,https://www.saastr.com/saastr-podcast-101-fayez-mohamood-co-founder-ceo-bluecore-on-how-to-scale-from-early-adopter-to-mass-market/,,Georgian/FirstMark,162,207,27.78%
160,Dashlane,dashlane.com,http://www.linkedin.com/company/dashlane,New York,NY,,212-929-0030,,,,129,165,27.91%
161,FreeAgent,freeagent.com,http://www.linkedin.com/company/freeagent,Morrow,GA,,201-626-5084,,,Seedrs/SaaS Capital,138,176,27.54%
162,TurnTo,turntonetworks.com,http://www.linkedin.com/company/turnto-networks,New York,NY,,800.491.7876,,,,50,64,28.00%
163,Lansweeper,lansweeper.com,https://www.linkedin.com/company/lansweeper-bvba,Grembergen,,,32-52-696-696,,,,43,55,27.91%
164,Workable,workable.com,http://www.linkedin.com/company/workable-hr,Boston,MA,,415-366-0190,,,83North/Greylock,219,277,26.48%
165,Bandwidth.com,bandwidth.com,https://www.linkedin.com/company/bandwidth-inc/,Raleigh,NC,,919-297-1100,,,,537,668,24.39%
166,Instapage,instapage.com,http://www.linkedin.com/company/instapage,San Francisco,CA,,801-938-4099,,https://growthhackers.com/articles/an-interview-with-instapage-founder-ceo-tyson-quick-podcast,,146,185,26.71%
167,SellerCloud,sellercloud.com,http://www.linkedin.com/company/sellercloud,Lakewood,NJ,,888.315.6652,,,,44,56,27.27%
168,Appypie,appypie.com,http://www.linkedin.com/company/appy-pie-inc-,WALNUT,CA,,888-322-7617,,,,74,94,27.03%
169,Mendix,mendix.com,http://www.linkedin.com/company/mendix,Boston,MA,,857.263.8200,,,Battery/Prime,407,508,24.82%
170,Arduino IDE,arduino.cc,https://www.linkedin.com/company/arduino,Somerville,MA,,,,,,109,138,26.61%
171,Odoo,odoo.com,http://www.linkedin.com/company/odoo,Brussels,BEL,,650.307.6736,,,Sofinnova,482,599,24.27%
172,Salsify,salsify.com,http://www.linkedin.com/company/salsify,Boston,MA,,844.725.7439,,,Venrock/Matrix,250,314,25.60%
173,FloQast,floqast.com,http://www.linkedin.com/company/floqast,Sherman Oaks,CA,,805-428-6467,http://www.socaltech.com/interview_with_mike_whitmire_ceo_and_co_founder_floqast/s-0069139.html,,Amplify.LA/Insight/Polaris,118,149,26.27%
174,PDFfiller,pdffiller.com,http://www.linkedin.com/company/pdffiller-com,Brookline,MA,,617.870.4200,,,Bootstrapped,316,395,25.00%
175,Price Intelligently,priceintelligently.com,https://www.linkedin.com/company/price-intelligently,Boston,MA,USA,,,,Bootstrapped,49,62,26.53%
176,Pipedrive,pipedrive.com,http://www.linkedin.com/company/pipedrive,New York,NY,,650-924-9906,,,Atomico/Storm,342,426,24.56%
177,Accurent,accruent.com,http://www.linkedin.com/company/accruent,Austin,TX,,310-526-5700,,,Sierra/InnoCal,688,844,22.67%
178,Heap,heapanalytics.com,http://www.linkedin.com/company/heap-inc-,San Francisco,CA,,415-938-9398,https://www.saastr.com/saastr-podcast-103-matin-movasatte-founder-ceo-heap-shares-why-productorganization-fit-is-key/,,,100,126,26.00%
179,Guru,guru.com,https://www.linkedin.com/company/guru-com,Pittsburgh,PA,,412.687.1316,,,August/Greylock,426,528,23.94%
180,UpCity,upcity.com,http://www.linkedin.com/company/upcity,Chicago,IL,,312-445-9615,,,,42,53,26.19%
181,ScheduleOnce,ScheduleOnce.com,https://www.linkedin.com/company/scheduleonce,,,,,,,,97,122,25.77%
182,Gradle,gradle.org,http://www.linkedin.com/company/gradleware,San Francisco,CA,,914.418.4010,,,,46,58,26.09%
183,WeTransfer,wetransfer.com,https://www.linkedin.com/company/wetransfer,,,,31 2 0810 0779,,,,130,163,25.38%
184,maropost,maropost.com,http://www.linkedin.com/company/maropost,Toronto,ON,,,,,Elephant/Highland Europe,126,158,25.40%
185,StackAdapt,stackadapt.com,http://www.linkedin.com/company/stackadapt,Toronto,ON,,800-659-2026,,,Plaza Ventures,94,118,25.53%
186,Braze,appboy.com,https://www.linkedin.com/company/braze-formerly-appboy-/,New York,NY,,,,,Battery/InterWest,272,338,24.26%
187,Clio,goclio.com,http://www.linkedin.com/company/clio---legal-practice-management-software,Burnaby,BC,,888-858-8547,,,Bessemer/Acton,287,356,24.04%
188,ActiveCampaign,activecampaign.com,https://www.linkedin.com/company/activecampaign-inc-/,Chicago,IL,,773.904.0945,,http://www.chicagotribune.com/bluesky/originals/ct-activecampaign-20-million-funding-bsi-20161011-story.html,Bootstrapped/Silversmith,270,335,24.07%
189,Aircall,aircall.io,https://www.linkedin.com/company/aircall,Paris,FRA,,(646) 776-5948,,,Balderton Capital,137,171,24.82%
190,6sense,6sense.com,http://www.linkedin.com/company/6sense,San Francisco,CA,,415-212-9225,,,,76,95,25.00%
191,LiveOps,liveops.com,http://www.linkedin.com/company/liveops,Scottsdale,AZ,,800.908.4502,,,Benchmark,520,635,22.12%
192,AppsFlyer,appsflyer.com,http://www.linkedin.com/company/appsflyer,New York,NY,,415-429-0123,,,Eight Roads/Pitango,425,521,22.59%
193,Bananatag,bananatag.com,https://www.linkedin.com/company/bananatag,Kelowna,BC,,,,,Bootstrapped,61,76,24.59%
194,Kyriba,kyriba.com,http://www.linkedin.com/company/kyriba-corporation,San Diego,CA,,858.731.7169,,,HSBC/Iris,480,586,22.08%
195,LeanData,leandatainc.com,http://www.linkedin.com/company/leandata,Sunnyvale,CA,,408.827.5326,,,Sapphire/Shasta,95,118,24.21%
196,backblaze,backblaze.com,https://www.linkedin.com/company/backblaze,San Mateo,CA,,,,,,66,82,24.24%
197,Aspire Technologies,aspiretechnology.com,http://www.linkedin.com/company/aspire-technology-limited,Sandyford,,,,,,,96,119,23.96%
198,ContractRoom,contractroom.com,http://www.linkedin.com/company/contractroom,Miami,FL,,800.950.9101,,,,37,46,24.32%
199,Chorus.ai,chorus.ai,https://www.linkedin.com/company/chorus.ai,San Francisco,CA,,,https://www.youtube.com/watch?v=Qm_x2vPjd1w,https://techcrunch.com/2017/02/07/with-a-16m-series-a-chorus-ai-listens-to-your-sales-calls-to-help-your-team-close-deals/,RedPoint/Emergence,58,72,24.14%
200,OnboardIQ,OnboardIQ.com,https://www.linkedin.com/company/onboardiq,San Francisco,CA,USA,,,,Y Combinator/Origin,101,125,23.76%
201,Toggl,toggl.com,https://www.linkedin.com/company/toggl,,_Tallinn,Harjumaa,,,,,50,62,24.00%
202,SalesLoft,salesloft.com,http://www.linkedin.com/company/salesloft,Atlanta,GA,,770-756-8026,,,Techstars/Storm/Emergence,302,370,22.52%
203,Conductor Searchlight,conductor.com,https://www.linkedin.com/company/conductor-inc-,New York,NY,,212-213-6251,,,,284,348,22.54%
204,Vainu,vainu.io,https://www.linkedin.com/company/vainu-io/,Helsinki,FIN,,,,,,155,191,23.23%
205,AgoraPulse,agorapulse.com,https://www.linkedin.com/company/agorapulse,Chappaqua,NY,,914-450-7834,,,,42,52,23.81%
206,Lead Accelerator,leadsportsaccelerator.com,https://www.linkedin.com/company/lead-sports-accelerator,Berlin,GER,,,,,,42,52,23.81%
207,LumApps,lumapps.com,https://www.linkedin.com/company/lumapps/,Lyon,FR,FRA,3.37E+10,,,Idinvest,116,143,23.28%
208,Segment,segment.com,http://www.linkedin.com/company/segment-io,San Francisco,CA,,415.213.2870,,,Y Combinator/Accel,302,369,22.19%
209,AppFolio,appfolio.com,http://www.linkedin.com/company/appfolio-inc,Goleta,CA,,805-617-2167,,,CISCO,685,824,20.29%
210,Leadsquared,Leadsquared.com,https://www.linkedin.com/company/leadsquared,Bangalore,IND,,,,https://growthhackers.com/articles/expert-interview-with-nilesh-patel-ceo-of-leadsquared,,126,155,23.02%
211,Nexmo,nexmo.com,http://www.linkedin.com/company/nexmo,San Francisco,CA,,415-805-8810,,,Sorenson/Intel,326,397,21.78%
212,iManage,imanage.com,http://www.linkedin.com/company/imanage,Chicago,IL,,312-667-7000,,,,494,597,20.85%
213,Sumo Logic,sumologic.com,http://www.linkedin.com/company/sumo-logic,Redwood City,CA,,650-810-8700,,,Sequoia/Accel,480,580,20.83%
214,Help Scout,helpscout.net,https://www.linkedin.com/company/help-scout,Boston,MA,,,,,Foundry Group,83,102,22.89%
215,Slido,slido.com,https://www.linkedin.com/company/sli-do,Bratislava,SLO,,,,,,97,119,22.68%
216,Zapier,zapier.com,http://www.linkedin.com/company/zapier,Sunnyvale,CA,,877.381.8743,,,Y Combinator/Bessemer,157,192,22.29%
217,Teamable,Teamable.com,https://www.linkedin.com/company/teamableme,San Francisco,CA,USA,,https://www.saastr.com/saastr-podcast-125-laura-bilazarian-founder-ceo-teamable-discusses-why-you-should-always-be-premium/,,,44,54,22.73%
218,Crisp Thinking,Crispthinking.com,http://www.linkedin.com/company/crisp-thinking,Leeds,UK,,,,,,198,241,21.72%
219,Sauce Labs,saucelabs.com,http://www.linkedin.com/company/sauce-labs,San Francisco,CA,,855.677.0011,,,,218,265,21.56%
220,Idio,idioplatform.com,http://www.linkedin.com/company/idio-ltd,London,UK,,44-20-3463-8618,,,,49,60,22.45%
221,Telnyx,telnyx.com,http://www.linkedin.com/company/telnyx,Chicago,IL,,312.945.7420,,,,81,99,22.22%
222,Knowbe4,knowbe4.com,https://www.linkedin.com/company/knowbe4/,Clearwater,FL,,,,,,498,598,20.08%
223,MariaDB,mariadb.com,https://www.linkedin.com/company/mariadb-corporation,Espoo,,,425-390-0154,,,,153,186,21.57%
224,Rainforest QA,rainforestqa.com,http://www.linkedin.com/company/rainforest,San Francisco,CA,,650.866.1407,,,,182,221,21.43%
225,Ebsta,ebsta.com,http://www.linkedin.com/company/ebsta,London,UK,,44-20-3002-5800,,,,36,44,22.22%
226,Bill.com,bill.com,https://www.linkedin.com/company/bill-com/,Palo Alto,CA,,,,,,388,467,20.36%
227,Duolingo,duolingo.com,http://www.linkedin.com/company/duolingo,Pittsburgh,PA,,412-567-6002,,,,252,305,21.03%
228,Mention,mention.com,https://www.linkedin.com/company/mention,Paris,FRA,,,,,Microsoft Accelerator,59,72,22.03%
229,The Trade Desk,thetradedesk.com,http://www.linkedin.com/company/the-trade-desk,Ventura,CA,,805-585-3434,,,Founder Collective,819,970,18.44%
230,Hubdoc,hubdoc.com,https://www.linkedin.com/company/hubdoc/,Toronot,ON,CAN,800-577-2842,,,BDC,87,106,21.84%
231,Quantum Workplace,quantumworkplace.com,http://www.linkedin.com/company/quantum-workplace,Omaha,NE,,402-505-8302,,,,64,78,21.88%
232,Brandfolder,brandfolder.com,http://www.linkedin.com/company/brandfolder-inc-,Denver,CO,,720.744.0300,,,,41,50,21.95%
233,Predictive Index,predictiveindex.com,https://www.linkedin.com/company/the-predictive-index/,Westwood,MA,,(781) 493-7535,,,,250,302,20.80%
234,ShareASale,shareasale.com,https://www.linkedin.com/company/shareasale-com,Chicago,IL,,312-321-0487,,,,55,67,21.82%
235,Ping Identity,PingIdentity.com,http://www.linkedin.com/company/ping-identity,Denver,CO,,303-468-2900,,,KKR/DFJ,681,809,18.80%
236,Salsa CRM,salsalabs.com,https://www.linkedin.com/company/salsa-labs-inc-,Bethesda,MD,,202-558-2807,,,,74,90,21.62%
237,Employee Navigator,employeenavigator.com,http://www.linkedin.com/company/employee-navigator-llc,Bethesda,MD,,703.734.2706,,,,60,73,21.67%
238,Silverline,silverlinecrm.com,http://www.linkedin.com/company/silverline_2,New York,NY,,646-833-3430,,,,283,341,20.49%
239,Linode,linode.com,http://www.linkedin.com/company/linode,Galloway,NJ,,(609) 380-7100,,,,138,167,21.01%
240,MailChimp,mailchimp.com,http://www.linkedin.com/company/mailchimp,Atlanta,GA,,,,,Bootstrapped,639,758,18.62%
241,CloudNine,cloudninediscovery.com,http://www.linkedin.com/company/cloudnine-discovery,Houston,TX,,713-462-6464,,,,85,103,21.18%
242,Bridgit Closeout,gobridgit.com,https://www.linkedin.com/company/bridgit,Kitchener,,,1-800-783-2127,,,,42,51,21.43%
243,MindTickle,mindtickle.com,http://www.linkedin.com/company/mindtickle,San Francisco,CA,,415-625-3646,,,,197,237,20.30%
244,BirdDogHR,birddoghr.com,http://www.linkedin.com/company/birddog,Des Moines,IA,,515-473-9211,,,,67,81,20.90%
245,Sertifi,sertifi.com,https://www.linkedin.com/company/sertifi-inc-,Chicago,IL,,312-261-5573,,,,43,52,20.93%
246,Laserfiche,laserfiche.com,http://www.linkedin.com/company/laserfiche,Long Beach,CA,,562.988.1688,,,,375,447,19.20%
247,Instabug,instabug.com,https://www.linkedin.com/company/instabug,Giza,EGY,,,,https://techcrunch.com/2016/06/06/ycs-instabug-raises-1-7m-seed-round-led-by-accel-to-grow-beyond-bugs/,Y Combinator/Accel,63,76,20.63%
248,SEMrush,semrush.com,http://www.linkedin.com/company/semrush,Trevose,PA,,855-814-4510,,,Bootstrapped,492,583,18.50%
249,BIME Analytics,bimeanalytics.com,http://www.linkedin.com/company/bimeanalytics,Montpellier,,,816.994.3282,,,,34,41,20.59%
250,Vimeo,vimeo.com,http://www.linkedin.com/company/vimeo,New York,NY,,,,,,471,558,18.47%
251,Bloomerang,bloomerang.co,http://www.linkedin.com/company/bloomerang,Indianapolis,IN,,317-296-8100,,,,64,77,20.31%
252,Appsee,appsee.com,https://www.linkedin.com/company/appsee,,,,888-213-9644,,,,49,59,20.41%
253,People HR,peoplehr.com,http://www.linkedin.com/company/peoplehr-apps,Doncaster,,,(44) 01427 872110,,,,35,42,20.00%
254,Zapproved,zapproved.com,http://www.linkedin.com/company/zapproved,Portland,OR,,888-806-6750,,,Vista Equity,123,147,19.51%
255,Whatfix,whatfix.com,https://www.linkedin.com/company/quickolabs,Sunnyvale,CA,,800-459-7098,,,Stellaris/Helion,97,116,19.59%
256,Acumatica,acumatica.com,http://www.linkedin.com/company/acumatica,Bellevue,WA,,888.228.8300,,,,178,212,19.10%
257,Brightpearl,brightpearl.com,http://www.linkedin.com/company/brightpearl,Bristol,Avon,,44.845.003.8935,,,MMC/Eden,100,119,19.00%
258,Calendly,calendly.com,http://www.linkedin.com/company/calendly,Atlanta,GA,,,,,,52,62,19.23%
259,BirdEye,birdeye.com,https://www.linkedin.com/company/birdeye,Sunnyvale,CA,,800-561-3357,,,WiL,299,353,18.06%
260,Sisense,sisense.com,http://www.linkedin.com/company/sisense,New York,NY,,646.432.1507,,,Bessemer/Battery,448,526,17.41%
261,Exago,exagoinc.com,https://www.linkedin.com/company/exago-inc-,Shelton,CT,,203.225.0876,,,,47,56,19.15%
262,jobber,getjobber.com,http://www.linkedin.com/company/jobber-software,Edmonton,AB,,,,,,90,107,18.89%
263,Imgur,imgur.com,http://www.linkedin.com/company/imgur,San Francisco,CA,,,,,,74,88,18.92%
264,Geopointe,geopointe.com,https://www.linkedin.com/company/geopointe,Orange,CA,,714-475-3837,,,,42,50,19.05%
265,Aha!,aha.io,http://www.linkedin.com/company/aha-labs-inc-,Menlo Park,CA,,888-926-2240,,,,96,114,18.75%
266,Redis Cloud,redislabs.com,http://www.linkedin.com/company/redis-labs-inc,Mountain View,CA,,415)930-9666,,,Bain/Carmel,198,234,18.18%
267,Optimove,optimove.com,https://www.linkedin.com/company/optimove/,New York,NY,,,,,,187,221,18.18%
268,Conversica,conversica.com,http://www.linkedin.com/company/conversica,Foster City,CA,,650-290-7674,,,Providence Strategic,211,249,18.01%
269,DataStax,datastax.com,https://www.linkedin.com/company/datastax/,Santa Clara,CA,,,,,,597,695,16.42%
270,MSIGHTS,msights.com,https://www.linkedin.com/company/msights-inc-/,Charlotte,NC,,,,,,43,51,18.60%
271,BuilderTREND,buildertrend.com,http://www.linkedin.com/company/buildertrend-solutions,Omaha,NE,,402-905-2506,,,,261,307,17.62%
272,OnSolve,OnSolve.com,https://www.linkedin.com/company/onsolve,Ormond Beach,FL,,,,,,155,183,18.06%
273,Bombora,bombora.com,http://www.linkedin.com/company/bomboradata,New York,NY,,646-937-5800,,,Bootstrapped,82,97,18.29%
274,BounceX,bouncex.com,https://www.linkedin.com/company/bounce-exchange/,New York,NY,,,,,,326,382,17.18%
275,BizTalk360,biztalk360.com,http://www.linkedin.com/company/biztalk360,Sidcup,,,(855) 867-8251,,,,49,58,18.37%
276,Infinity HR,infinitihr.com,http://www.linkedin.com/company/infiniti-hr,Burtonsville,MD,,866.552.6360,,,,38,45,18.42%
277,Travis CI,travis-ci.com,https://www.linkedin.com/company/travis-ci,Berlin,GER,,,,,,38,45,18.42%
278,Reply.io,reply.io,http://www.linkedin.com/company/reachout-io,Toronto,ON,,888-580-5942,,,,38,45,18.42%
279,AskNicely,asknicely.com,https://www.linkedin.com/company/ask-nicely,Auckland,NZ,,(866) 343-7386,,,,38,45,18.42%
280,namecheap,namecheap.com,http://www.linkedin.com/company/namecheap-inc,Los Angeles,CA,,310-259-3259,,,,624,723,15.87%
281,Justworks,justworks.com,,New York,NY,,888.534.1711,,,Redpoint/Bain,350,409,16.86%
282,JetBrains,jetbrains.com,http://www.linkedin.com/company/jetbrains,Prague,,,609.714.7883,,,,599,694,15.86%
283,Lever,lever.co,https://www.linkedin.com/company/lever-,San Francisco,CA,,(415) 458 - 2731,,,Scale/Matrix,221,259,17.19%
284,Allocadia,allocadia.com,http://www.linkedin.com/company/allocadia-software,Vancouver,BC,,604-639-5736,,,,90,106,17.78%
285,Druva inSync,druva.com,http://www.linkedin.com/company/druva,Sunnyvale,CA,,650.241.3501,,,Sequoia/Nexus,528,612,15.91%
286,Totango,totango.com,http://www.linkedin.com/company/totango,San Mateo,CA,,800-634-1990,,,,74,87,17.57%
287,Contify,contify.com,https://www.linkedin.com/company/contify,New Delhi,IND,,91 1140575200,,,,115,135,17.39%
288,BetterCloud,bettercloud.com,https://www.linkedin.com/company/bettercloud,New York,NY,USA,,,,Accel,188,220,17.02%
289,Docebo,docebo.com,https://www.linkedin.com/company/docebo-srl,Toronto,ON,,800.681.4601,http://www.software-comparison.net/interview-e-learning-claudio-erba-docebo-s-ceo-and-founder-answers-our-questions-about-its-software,155.php#.WWTwHdPyt0s,Principia SGR,226,264,16.81%
290,ServiceChannel,servicechannel.info,http://www.linkedin.com/company/servicechannel,New York,NY,,800-508-6695,,,,184,215,16.85%
291,SketchUp,sketchup.com,https://www.linkedin.com/company-beta/41756/,Boulder,CO,,408.481.8000,,,,93,109,17.20%
292,Recurly,recurly.com,https://www.linkedin.com/company/recurly-inc-,San Francisco,CA,,,https://www.saastr.com/saastr-podcast-111-dan-burkhart-founder-ceo-recurly-shares-how-to-build-scale-a-customer-success-team/,,,148,173,16.89%
293,Automattic,Automattic.com,https://www.linkedin.com/company/automattic/,San Francisco,CA,,,,,Insight/Tiger Global,650,747,14.92%
294,Sprout Social,sproutsocial.com,https://www.linkedin.com/company/sprout-social-inc-,Chicago,IL,,866-878-3231,,http://www.builtinchicago.org/2016/02/17/sprout-social-raises-42m,Goldman/NEA,481,555,15.38%
295,Phocas Software,phocassoftware.com,http://www.linkedin.com/company/phocas_2,Coventry,,,877.387.4004,,,,119,139,16.81%
296,Revegy,revegy.com,http://www.linkedin.com/company/revegy-software-inc-,Atlanta,GA,,404.998.5700,,,,41,48,17.07%
297,iWave PRO,iwave.com,http://www.linkedin.com/company/iwave-information-systems,Charlottetown,,,902-894-2600,,,,71,83,16.90%
298,Wistia,wistia.com,http://www.linkedin.com/company/wistia,Somerville,MA,,,,,,83,97,16.87%
299,Egnyte,egnyte.com,http://www.linkedin.com/company/egnyte,Mountain View,CA,,650.968.4018,,,GV/Kleiner/Polaris,364,421,15.66%
300,Any.do,any.do,https://www.linkedin.com/company/any.do,Tel Aviv,ISR,,,,,Genesis,344,398,15.70%
301,Gainsight,gainsight.com,http://www.linkedin.com/company/gainsight,Redwood City,CA,,888-623-8562,,,Insight/Bessemer,542,623,14.94%
302,SalesBox,Salesboxinc.com,https://www.linkedin.com/company/salesbox-inc,San Francisco,CA,IS,415-361-4080,,,,134,156,16.42%
303,Lob,lob.com,http://www.linkedin.com/company/lob,San Francisco,CA,,,,,Y Combinator/Polaris,97,113,16.49%
304,ArchiveSocial,ArchiveSocial.com,http://www.linkedin.com/company/archivesocial,Durham,NC,,,,,,48,56,16.67%
305,Coveo,coveo.com,http://www.linkedin.com/company/coveo,Quebec City,QC,,800.635.5476,,,BDC Venture,314,363,15.61%
306,Fastly,fastly.com,http://www.linkedin.com/company/fastly,San Francisco,CA,,,,,Sapphire/August,414,477,15.22%
307,EXASOL,exasol.com,https://www.linkedin.com/company/exasol-ag,Bayern,,,44-20-3755-0981,,,,85,99,16.47%
308,Appointy,appointy.com,https://www.linkedin.com/company/appointy-inc,Bhopal,MP,,855.707.1277,,,,36,42,16.67%
309,Chrome River EXPENSE,chromeriver.com,http://www.linkedin.com/company/chromeriver,Los Angeles,CA,,888-781-0088,,,,302,349,15.56%
310,ThinkHR Learn,thinkhr.com,http://www.linkedin.com/company/thinkhr,Pleasanton,CA,,925.225.1100,,,,142,165,16.20%
311,Jama Software,jamasoftware.com,http://www.linkedin.com/company/jama-software,Portland,OR,,503.922.1058,,,Updata/Trinity,195,226,15.90%
312,Cloudability,Cloudability.com,https://www.linkedin.com/company/cloudability,Portland,OR,USA,,https://www.saastr.com/saastr-podcast-109-mat-ellis-founder-ceo-cloudability-discusses-scaling-saas-teams-with-startup-hyper-growth/,,Foundry/Trinity,117,136,16.24%
313,Semmle,semmle.com,http://www.linkedin.com/company/semmle,New York,NY,,,,,,55,64,16.36%
314,Plesk,plesk.com,http://www.linkedin.com/company/plesk,Schaffhausen,SH,,855 777 3680,,,,157,182,15.92%
315,Intercom,intercom.com,http://www.linkedin.com/company/intercom,San Francisco,CA,,877-595-5175,,https://growthhackers.com/articles/an-interview-with-the-ceo-of-intercom-io-on-how-to-build-a-saas-business,Index/Bessemer,779,886,13.74%
316,grammarly,grammarly.com,http://www.linkedin.com/company/grammarly,San Francisco,CA,,,,,General Catalyst,191,221,15.71%
317,Ableton Live,ableton.com,http://www.linkedin.com/company/ableton,Berlin,GER,,646.723.4550,,,,366,421,15.03%
318,Agility Media Monitoring & Analytics,agilitypr.com,https://www.linkedin.com/company/agility-pr-solutions,Ridgefield Park,NJ,,866-545-3745,,,,139,161,15.83%
319,TradeGecko,tradegecko.com,https://www.linkedin.com/company/tradegecko,,,,,,,,94,109,15.96%
320,Qt Creator,qt.io,https://www.linkedin.com/company/the-qt-company,Espoo,,,408 906 8400,,,,262,302,15.27%
321,Caspio,caspio.com,https://www.linkedin.com/company/caspio-inc,Santa Clara,CA,,650-691-0900,,,,140,162,15.71%
322,Greenhouse Software,greenhouse.io,http://www.linkedin.com/company/greenhouse-inc-,New York,NY,,917-780-4130,,,,263,303,15.21%
323,Building Engines,buildingengines.com,https://www.linkedin.com/company/building-engines-inc-,Waltham,MA,,781-290-5300,,,,101,117,15.84%
324,BOARD,board.com,https://www.linkedin.com/company/board,Chiasso,,,617.203.2173,,,Grafton,388,445,14.69%
325,SurveyMonkey,surveymonkey.com,http://www.linkedin.com/company/surveymonkey,Palo Alto,CA,,650-543-8400,,,Tiger Global,823,932,13.24%
326,Intermapper,helpsystems.com,http://www.linkedin.com/company/helpsystems-llc,Eden Prairie,MN,,952-933-0609,,,,429,491,14.45%
327,HotJar,hotjar.com,https://www.linkedin.com/company/hotjar,,,,,,http://nathanlatka.com/thetop558/,,57,66,15.79%
328,CircleCI,circleci.com,http://www.linkedin.com/company/circleci,San Francisco,CA,,415.944.3995,,,Draper/Scale,149,172,15.44%
329,Walkme,walkme.com,http://www.linkedin.com/company/walkme,San Francisco,CA,,855-492-5563,https://www.saastr.com/saastr-podcast-113-dan-adika-founder-ceo-walkme-shares-the-most-important-metrics-to-assess-the-state-of-a-saas-startup,,Insight/Scale,627,713,13.72%
330,Wave,my.waveapps.com,https://www.linkedin.com/company/wave-hq,Toronto,ON,,,,,NAB/Social,170,196,15.29%
331,DroneDeploy,DroneDeploy.com,https://www.linkedin.com/company/dronedeploy/,San Francisco,CA,,,,,,104,120,15.38%
332,Ansarada,ansarada.com,http://www.linkedin.com/company/ansarada,Chicago,IL,,312.466.5530,,,,236,271,14.83%
333,BricsCAD,bricsys.com,http://www.linkedin.com/company/bricsys,Gent,,,603.882.5876,,,,91,105,15.38%
334,META4,meta4.com,http://www.linkedin.com/company/meta4,Madrid,SPA,,770-353-0723,,,,800,904,13.00%
335,Hireology,Hireology.com,https://www.linkedin.com/company/hireology/,Chicago,IL,,,,,,174,200,14.94%
336,CampusNexus Student,campusmanagement.com,http://www.linkedin.com/company/campus-management-corp,Boca Raton,FL,,561-923-2500,,,,652,739,13.34%
337,Intacct,intacct.com,http://www.linkedin.com/company/intacct-corporation,San Jose,CA,,408.878.0900,,,Battery/SVB,560,636,13.57%
338,Usabilla,Usabilla.com,https://www.linkedin.com/company/usabilla,Amsterdam,NET,,,,http://www.prweb.com/releases/2015/12/prweb13129268.htm,Boralis,126,145,15.08%
339,bitly,bitly.com,http://www.linkedin.com/company/bitly,New York,NY,,718-971-5558,,,,189,217,14.81%
340,Vroozi,vroozi.com,http://www.linkedin.com/company/vroozi,Oaks,CA,,866.509.5045,,,,59,68,15.25%
341,Atlas Solutions,atlassolutions.com,http://www.linkedin.com/company/atlas,Menlo Park,CA,,(650) 543-4800,,,,737,832,12.89%
342,Bamboo HR,bamboohr.com,http://www.linkedin.com/company/bamboohr,Lindon,UT,,801.724.6600,,,Sorenson,414,471,13.77%
343,eduCBA,educba.com,https://www.linkedin.com/company/corporate-bridge-academy,,,,,,,,60,69,15.00%
344,WealthEngine,wealthengine.com,http://www.linkedin.com/company/wealthengine,Bethesda,MD,,301-215-5980,,,,101,116,14.85%
345,Wrike,wrike.com,http://www.linkedin.com/company/wrike,Mountain View,CA,,650.318.3551,,,Scale/Bain,548,621,13.32%
346,Teamwork.com,teamwork.com,https://www.linkedin.com/company/teamwork-com,Cork,IRE,,336.578.3456,,,,179,205,14.53%
347,VanillaSoft,vanillasoft.com,http://www.linkedin.com/company/vanillasoft,Plano,TX,,866-763-8826,,,,40,46,15.00%
348,ENPS,enps.com,http://www.linkedin.com/company/enps,Washington,DC,,212-621-1500,,,,40,46,15.00%
349,Vend,vendhq.com,https://linkedin.com/company/vendhq-com,Auckland,NZ,,415-315-9566,,,,307,350,14.01%
350,Splashtop,splashtop.com,http://www.linkedin.com/company/splashtop-inc.,San Jose,CA,,408-861-1088,,,,47,54,14.89%
351,Bullhorn,bullhorn.com,http://www.linkedin.com/company/bullhorn,Boston,MA,,617.478.9100,,,General Catalyst/Highland,767,863,12.52%
352,AutoTURN,transoftsolutions.com,http://www.linkedin.com/company/transoft-solutions-inc-,Richmond,BC,,604.244.8387,,,,110,126,14.55%
353,Perforce,perforce.com,http://www.linkedin.com/company/perforce-software,Minneapolis,MN,,510.864.7400,,,,227,259,14.10%
354,Urban Airship,urbanairship.com,http://www.linkedin.com/company/urban-airship,Portland,OR,,855-385-3155,,,,199,227,14.07%
355,Sendible,sendible.com,http://www.linkedin.com/company/sendible,London,UK,,44-20-3608-6879,,,,41,47,14.63%
356,Smarp,smarp.com,https://www.linkedin.com/company/smarp-oy,Helsinki,,,917-941-3863,,,,76,87,14.47%
357,Trello,trello.com,https://linkedin.com/company/trello,New York,NY,,212.279.2335,https://www.saastr.com/saastr-podcast-104-michael-pryor-co-founder-ceo-trello-shares-the-3-key-elements-that-make-a-great-ceo/,,,69,79,14.49%
358,DiscoverOrg,discoverorg.com,http://www.linkedin.com/company/discoverorg,Vancouver,WA,,800-914-1220,,,Bootstrapped,589,664,12.73%
359,SmartRecruiters,smartrecruiters.com,http://www.linkedin.com/company/smartrecruiters,San Francisco,CA,,415-659-9130,,,Insight/Rembrandt,201,229,13.93%
360,Periscope Data,periscopedata.com,https://www.linkedin.com/company/periscope-inc-,San Francisco,CA,,415.991.8333,,,Draper/Bessemer,142,162,14.08%
361,Transifex,transifex.com,http://www.linkedin.com/company/transifex,Menlo Park,CA,,855-418-5000,,,,70,80,14.29%
362,Klipfolio,klipfolio.com,http://www.linkedin.com/company/klipfolio,Ottawa,ON,,613.233.5991,,,Mistral/Omers,99,113,14.14%
363,NetDimensions,netdimensions.com,http://www.linkedin.com/company/netdimensions,Hong Kong,,,860.436.3898,,,,188,214,13.83%
364,AirPR,airpr.com,http://www.linkedin.com/company/airpr,San Francisco,CA,,,,,,35,40,14.29%
365,sendwithus,sendwithus.com,https://www.linkedin.com/company/sendwithus,San Francisco,CA,USA,,,,Y Combinator,35,40,14.29%
366,ETO Software,socialsolutions.com,http://www.linkedin.com/company/social-solutions,Austin,TX,,,,,,252,286,13.49%
367,Five9,five9.com,http://www.linkedin.com/company/five9,San Ramon,CA,,925.201.2000,,,Sapphire/Adams Street,830,928,11.81%
368,Lyris,lyris.com,http://www.linkedin.com/company/lyris,Emeryville,CA,,,,,,160,182,13.75%
369,Certify,certify.com,https://www.linkedin.com/company/certify-inc,Portland,ME,,207-773-6100,,,,184,209,13.59%
370,Upfluence,upfluence.com,https://www.linkedin.com/company/upfluence,New York,NY,,,,,,50,57,14.00%
371,WP Engine,wpengine.com,http://www.linkedin.com/company/wp-engine,Austin,TX,,877-973-6446,,,Silverton/North Bridge,558,627,12.37%
372,Saba Cloud,saba.com,http://www.linkedin.com/company/saba,Redwood Shores,CA,,650.581.2500,,,Berkeley Intl,873,973,11.45%
373,TeamViewer,teamviewer.com,http://www.linkedin.com/company/teamviewer,Tampa,FL,,800.951.4573,,,,444,500,12.61%
374,ExperLogix,experlogix.com,http://www.linkedin.com/company/experlogix-inc.,South Jordan,UT,,805-504-9729,,,,36,41,13.89%
375,Khan Academy,khanacademy.org,http://www.linkedin.com/company/khan-academy,Mountain View,CA,,,,,Omidyar,464,522,12.50%
376,V12 Data,v12data.com,https://www.linkedin.com/company/v12data,Wesley Chapel,FL,,,,,,103,117,13.59%
377,Nearpod,nearpod.com,http://www.linkedin.com/company/nearpod,Hallandale,FL,,,,,Insight,157,178,13.38%
378,ChatMeter,chatmeter.com,http://www.linkedin.com/company/chatmeter,San Diego,CA,,,,,,74,84,13.51%
379,Falcon,falcon.io,https://www.linkedin.com/company/falconio,Copenhagen,DEN,,,,,,281,317,12.81%
380,Lead Forensics,leadforensics.com,https://www.linkedin.com/company/lead-forensics/,London,UK,,44-20-3131-0996,,,Bootstrapped,761,848,11.43%
381,UserTesting,usertesting.com,http://www.linkedin.com/company/usertesting.com,Mountain View,CA,,650-226-4142,,,Accel,611,683,11.78%
382,Nintex,nintex.com,http://www.linkedin.com/company/nintex,Bellevue,WA,,425-324-2400,,,TA/Updata,482,540,12.03%
383,GamEffective,gameffective.com,http://www.linkedin.com/company/gameffective,Charlotte,NC,,800.538.4263,,,,68,77,13.24%
384,Easy Software,easysoftware.com,https://www.linkedin.com/company/17971627,London,UK,ENG,44 207 193 4089,,,,53,60,13.21%
385,Ceros,ceros.com,http://www.linkedin.com/company/ceros.com,New York,NY,,212-714-6162,,,Grotech,164,185,12.80%
386,PowerDMS,powerdms.com,http://www.linkedin.com/company/powerdms,Orlando,FL,,800.749.5104,,,,100,113,13.00%
387,Selenium IDE,seleniumhq.org,https://www.linkedin.com/company/selenium,,,,,,,,38,43,13.16%
388,Globoforce,globoforce.com,http://www.linkedin.com/company/globoforce,Southborough,MA,,508.229.1500,,,Atlas,464,519,11.85%
389,UJET,ujet.co,https://www.linkedin.com/company/ujetco,San Francisco,CA,USA,,,https://www.jacksmith.eu/blog/ujet-launch/225,,77,87,12.99%
390,Gandi,gandi.net,https://www.linkedin.com/company/gandi,Paris,FRA,,33.(0) 1 70.37.76.61,,,,117,132,12.82%
391,ConnectWise,connectwise.com,http://www.linkedin.com/company/connectwise,Tampa,FL,,813-463-4700,,,,886,981,10.72%
392,Ivy Mobility,ivymobility.com,https://www.linkedin.com/company/ivy-mobility-solutions/,Singapore,SI,SIN,7.27E+09,,,,340,381,12.06%
393,Datorama,datorama.com,http://www.linkedin.com/company/datorama,New York,NY,,917.503.9824,,,Lightspeed/Marker,350,392,12.00%
394,OpenSesame,opensesame.com,http://www.linkedin.com/company/opensesame_2,Portland,OR,,,,,Altos/Parttech,78,88,12.82%
395,Episerver CMS,episerver.com,http://www.linkedin.com/company/episerver-ab,Nashua,NH,,603.594.0249,,,Accel/KKR,470,524,11.49%
396,Keeper,keepersecurity.com,http://www.linkedin.com/company/keeper-security-inc-,Chicago,IL,,312.829.2680,,,Darren Guccione,105,118,12.38%
397,Quip,quip.com,https://www.linkedin.com/company/quip-com,San Francisco,CA,,415.359.9326,,,Greylock/Benchmark,105,118,12.38%
398,Azalead,azalead.com,https://www.linkedin.com/company/azalead,Paris,FRA,,33 1 84 17 32 85,,,Idinvest/Aurinvest,56,63,12.50%
399,Contentools,contentools.com,https://www.linkedin.com/company/contentools,San Francisco,CA,,,,,,139,156,12.23%
400,Bluebeam Revu,bluebeam.com,http://www.linkedin.com/company/bluebeam-software,Pasadena,CA,,626.788.4100,,,Tech Coast Angels,336,375,11.61%
401,CloudPay,cloudpay.net,http://www.linkedin.com/company/cloudpay,Raleigh,NC,,919-322-5800,,,,266,297,11.65%
402,iSpring QuizMaker,ispringsolutions.com,http://www.linkedin.com/company/ispring-solutions,New York,NY,,,,,,142,159,11.97%
403,iSpring Suite,ispringsolutions.com,http://www.linkedin.com/company/ispring-solutions,Alexandria,VA,,800.640.0868,,,,142,159,11.97%
404,AdvancedMD,advancedmd.com,https://www.linkedin.com/company/advancedmd,South Jordan,UT,,801-984-9500,,,,567,628,10.76%
405,Blue Jeans Network,bluejeans.com,http://www.linkedin.com/company/blue-jeans-network,Mountain View,CA,,408-550-2828,,,NEA/Battery,612,677,10.62%
406,Izenda,izenda.com,http://www.linkedin.com/company/izenda,Atlanta,GA,,678.619.5889,,,Ethos/Hawthorne,41,46,12.20%
407,Visage,visageimaging.com,http://www.linkedin.com/company/visage-imaging,Andover,MA,,,,,,41,46,12.20%
408,Mesosphere,mesosphere.com,https://www.linkedin.com/company/mesosphere,San Francisco,CA,,415-805-1222,,,Khosla/Andressen,298,332,11.41%
409,Reputation.com,Reputation.com,https://www.linkedin.com/company/reputation-com,,,,,,,August/Bessemer,378,420,11.11%
410,AscendixRE,ascendix.com,http://www.linkedin.com/company/ascendix-technologies,Dallas,TX,,972-889-8090,,,,84,94,11.90%
411,IFTTT,ifttt.com,http://www.linkedin.com/company/ifttt,Atlanta,GA,,404-618-1050,,,,50,56,12.00%
412,Aeries Software,aeries.com,https://www.linkedin.com/company/aeries-software,Anaheim,CA,,888-324-5363,,,,50,56,12.00%
413,PlanGrid,plangrid.com,http://www.linkedin.com/company/plangrid,San Francisco,CA,,,,,Tenaya/Sequoia,380,422,11.05%
414,BSD Tools,bluestatedigital.com,http://www.linkedin.com/company/blue-state-digital,New York,NY,,646-205-1155,,,,210,234,11.43%
415,Jitterbit,jitterbit.com,http://www.linkedin.com/company/jitterbit,Alameda,CA,,510-250-3330,,,,165,184,11.52%
416,Crownpeak,crownpeak.com,http://www.linkedin.com/company/crownpeak-technology,Los Angeles,CA,,310.841.5920,,,,157,175,11.46%
417,Squarespace,squarespace.com,https://www.linkedin.com/company/squarespace/,New York,NY,,646.580.3456,,,GA/Index,816,896,9.80%
418,Broadly,Broadly.com,http://www.linkedin.com/company/broadly,Oakland,CA,,,,,Foundry/NEA,115,128,11.30%
419,Hearsay,hearsaysystems.com,https://www.linkedin.com/company/hearsay-systems,San Francisco,CA,USA,,https://www.saastr.com/saastr-podcast-081-steve-garrity-co-founder-hearsay-discusses-why-it-is-wrong-to-have-a-sales-led-culture/,,,276,306,10.87%
420,Planisware,planisware.com,http://www.linkedin.com/company/planisware,San Francisco,CA,,415.591.0941,,,,180,200,11.11%
421,Mylyn,eclipse.org,http://www.linkedin.com/company/eclipse-foundation,Ottawa,ON,,613-224-9461,,,,79,88,11.39%
422,Widen Collective,widen.com,http://www.linkedin.com/company/widen-enterprises,Madison,WI,,608.222.1296,,,,125,139,11.20%
423,Unbounce,unbounce.com,http://www.linkedin.com/company/unbounce,Vancouver,BC,,888-515-9161,,https://growthhackers.com/articles/rick-perreault-unbounce-ceo-tells-you-how-to-build-a-business-with-no-sales-team-minimal-paid-marketing,,163,181,11.04%
424,Tealium,tealium.com,http://www.linkedin.com/company/tealium,San Diego,CA,,858-779-1344,,,Citi/Battery,373,412,10.46%
425,InsideSales.com,insidesales.com,http://www.linkedin.com/company/insidesales.com,Provo,UT,,385-207-7252,,,Polaris/Salesforce,418,461,10.29%
426,Formstack,formstack.com,http://www.linkedin.com/company/formstack,Indianapolis,IN,,317.542.3125,,,Bootstrapped,109,121,11.01%
427,Zabbix,zabbix.com,https://www.linkedin.com/company/zabbix,Riga,,,877-4-922249,,,,45,50,11.11%
428,prestashop,prestashop.com,http://www.linkedin.com/company/prestashop,Paris,FRA,,,,,,187,207,10.70%
429,MOO,moo.com,http://www.linkedin.com/company/moo-com,London,UK,,(401) 443-2000,,,Barclays,610,669,9.67%
430,ShowingDesk BE,showingtime.com,http://www.linkedin.com/company/showingtime,Chicago,IL,,312-222-9780,,,,207,229,10.63%
431,SupportNinja,SupportNinja.com,https://www.linkedin.com/company/support-ninja/,Austin,TX,,,,,,248,274,10.48%
432,everbridge,everbridge.com,http://www.linkedin.com/company/everbridge,Burlington,MA,,,,,ABS Ventures,590,647,9.66%
433,Higher Logic,higherlogic.com,http://www.linkedin.com/company/higher-logic,Arlington,VA,,202-360-4402,,,JMI Equity,312,344,10.26%
434,DigitalOcean,digitalocean.com,http://www.linkedin.com/company/digitalocean,New York,NY,,888 890 6714,,,Trinity/Andreessen,442,486,9.95%
435,LoopNet,loopnet.com,http://www.linkedin.com/company/loopnet,Washington,DC,,415-243-4200,,,,315,347,10.16%
436,Memsource,memsource.com,https://www.linkedin.com/company/memsource-technologies,,,,420 221 490 441,,,,75,83,10.67%
437,Moz,moz.com,http://www.linkedin.com/company/moz,Seattle,WA,,206-602-2005,,,,256,282,10.16%
438,PowToon,powtoon.com,https://www.linkedin.com/company/powtoon-ltd,Stanmore,ENG,,,,,,85,94,10.59%
439,Talkwalker,talkwalker.com,https://www.linkedin.com/company/talkwalker,Luxembourg,LUX,,646-712-9441,,,Main Mezzanine,205,226,10.24%
440,M-Files DMS,m-files.com,http://www.linkedin.com/company/m-files-corporation,Dallas,TX,,972.516.4210,,,Partech/Draper,367,403,9.81%
441,Buffer,buffer.com,https://www.linkedin.com/company/bufferapp/,,,,,,https://buffer.baremetrics.com/stats/arr,,105,116,10.48%
442,Nuix,nuix.com,http://www.linkedin.com/company/nuix,Herndon,VA,,877-470-6849,,,Macquarie,416,456,9.62%
443,Sococo,sococo.com,http://www.linkedin.com/company/sococo,Boston,MA,,650-265-7013,,,,67,74,10.45%
444,APS Payroll,apspayroll.com,http://www.linkedin.com/company/aps-payroll,Shreveport,LA,,318.222.9774,,,,107,118,10.28%
445,Nulab,nulab-inc.com,https://www.linkedin.com/company/nulab,Fukuoka,,,81-337709199,,,,58,64,10.34%
446,Noosh,noosh.com,http://www.linkedin.com/company/noosh-inc-/,Mountain View,CA,,650-637-6000,,,,39,43,10.26%
447,Sotrender,sotrender.com,https://www.linkedin.com/company/sotrender,,,,,,,,39,43,10.26%
448,Benchmark Email,benchmarkemail.com,http://www.linkedin.com/company/benchmark-email,Los Alamitos,CA,USA,,,,,109,120,10.09%
449,Convoso,convoso.com,https://www.linkedin.com/company/convoso,Woodland Hills,CA,,,,,,39,43,10.26%
450,Avature,avature.net,http://www.linkedin.com/company/avature,New York,NY,,212-380-4160,,,,530,578,9.06%
451,beekeeper,beekeeper.io,https://www.linkedin.com/company/beekeeper,Zurich,SWI,,,,,,141,155,9.93%
452,Influitive,influitive.com,http://www.linkedin.com/company/influitive,Toronto,ON,,888-684-0758,,,,131,144,9.92%
453,eXo Platform,exoplatform.com,http://www.linkedin.com/company/exo-platform,Paris,FRA,,415 963 3541,,,,131,144,9.92%
454,MadCap Flare,madcapsoftware.com,http://www.linkedin.com/company/madcap-software-inc,La Jolla,CA,,858.320.0387,,,,80,88,10.00%
455,ARCHIBUS,archibus.com,http://www.linkedin.com/company/archibus-inc.,Boston,MA,,617-227-2508,,,,91,100,9.89%
456,cb insights,cbinsights.com,http://www.linkedin.com/company/cb-insights,New York,NY,,212-292-3148,,,Pilot Growth,208,228,9.62%
457,TSheets,tsheets.com,http://www.linkedin.com/company/tsheets-time-tracking-software,Valencia,CA,,888.836.2720,,,Summit,187,205,9.63%
458,ClassDojo,classdojo.com,http://www.linkedin.com/company/classdojo,San Francisco,CA,,650-458-7775,,,,81,89,9.88%
459,dotmailer,dotmailer.com,http://www.linkedin.com/company/dotmailer,London,London,,,,,,289,316,9.34%
460,Vectorworks,vectorworks.net,http://www.linkedin.com/company/nemetschek-vectorworks,Columbia,MD,,410-290-5114,,,,210,230,9.52%
461,IdeaScale,ideascale.com,http://www.linkedin.com/company/ideascale-llc,San Francisco,CA,,800.549.9198,,,,61,67,9.84%
462,Vanilla,vanillaforums.com,http://www.linkedin.com/company/vanilla-forums-inc,Montreal,QC,,650-488-8520,,,,41,45,9.76%
463,AT Internet,atinternet.com,https://www.linkedin.com/company/at-internet,London,UK,,44-20-3008-6012,,,IXO,275,300,9.09%
464,WaveMaker,wavemaker.com,http://www.linkedin.com/company/wavemaker,San Francisco,CA,,415-357-0210 x 118,,,,84,92,9.52%
465,issuu,issuu.com,https://www.linkedin.com/company/issuu/,Palo Alto,CA,,,,,,95,104,9.47%
466,Wingify,wingify.com,https://www.linkedin.com/company/wingify,Saraswati Vihar,DL,,91-1166579191,,,,184,201,9.24%
467,Meetup,meetup.com,http://www.linkedin.com/company/meetup,New York,NY,,212.255.7327,,,DFJ/Union Square,671,726,8.20%
468,CloudLead,cloudlead.co,https://www.linkedin.com/company/elistguy,,,,,,,,85,93,9.41%
469,CustomerGauge,CustomerGauge.com,https://www.linkedin.com/company/customergauge,Amsterdam,NET,,,,,,53,58,9.43%
470,Neon,z2systems.com,http://www.linkedin.com/company/z2-systems,Chicago,IL,,888-860-6366,,,,53,58,9.43%
471,Hotelogix,Hotelogix.com,https://www.linkedin.com/company/hotelogix,Uttar Pradesh,IND,INdia,,,,Accel,188,205,9.04%
472,SiteGround,siteground.com,https://www.linkedin.com/company/siteground-web-hosting-company,Alexandria,VA,,866.605.2484,,,,420,456,8.57%
473,EasyVista,easyvista.com,http://www.linkedin.com/company/easyvista,New York,NY,,888 398 4876,,,,189,206,8.99%
474,SmartBear,smartbear.com,http://www.linkedin.com/company/smartbear-software,Somerville,MA,,617.684.2600,,,,373,405,8.58%
475,Geckoboard,geckoboard.com,http://www.linkedin.com/company/geckoboard,London,UK,,,,,,43,47,9.30%
476,Atera,atera.com,https://www.linkedin.com/company/atera-networks,New York,NY,,,,,,54,59,9.26%
477,E2Open,e2open.com,http://www.linkedin.com/company/e2open/employee-insights,Austin,TX,,512-425-3580,,,,835,899,7.66%
478,DonorPerfect,softerware.com,https://linkedin.com/company/softerware-inc-,Horsham,PA,,215-628-0400,,,,157,171,8.92%
479,Plex Systems,plex.com,http://www.linkedin.com/company/plex-systems-inc.,Troy,MI,,248-391-8001,,,T. Rowe/Accel,515,557,8.16%
480,Drupal,drupal.org,https://www.linkedin.com/company/drupal-association,Portland,OR,,,,,,90,98,8.89%
481,Aderant,aderant.com,http://www.linkedin.com/company/aderant,Atlanta,GA,,404-720-3600,,,,512,553,8.01%
482,Ubuntu,ubuntu.com,http://www.linkedin.com/company/ubuntu,London,UK,,44-20-7630-2400,,,,260,282,8.46%
483,Interakt,Interaktco.com,https://www.linkedin.com/company/interakt,Singapore,SIN,,,,,,91,99,8.79%
484,Intapp Time,intapp.com,http://www.linkedin.com/company/intapp,Palo Alto,CA,,650-852-0400,,,Great Hill,341,369,8.21%
485,BlackLine,blackline.com,https://www.linkedin.com/company/blackline/,Woodland Hills,CA,,877-777-7750,,,Iconiq,839,900,7.27%
486,SurePayroll,surepayroll.com,http://www.linkedin.com/company/surepayroll,Glenview,IL,,847-676-8420,,,,240,260,8.33%
487,TrueConf,trueconf.com,https://www.linkedin.com/company/trueconf,Moscow,,,(347) 878-3263,,,,69,75,8.70%
488,Ace Metrix,acemetrix.com,https://www.linkedin.com/company/ace-metrix/,El Segundo,CA,,,,,,46,50,8.70%
489,RebelMouse,rebelmouse.com,http://www.linkedin.com/company/rebelmouse,New York,NY,,917-780-2264,,,,58,63,8.62%
490,Poll Everywhere,polleverywhere.com,http://www.linkedin.com/company/poll-everywhere-inc.,San Francisco,CA,,,,,,58,63,8.62%
491,Socialbakers,socialbakers.com,https://www.linkedin.com/company/socialbakers-com,San Francisco,CA,,646-875-4250,,,Index/Earlybird,446,481,7.85%
492,Sales-i,sales-i.com,http://www.linkedin.com/company/sales-i,Solihull,ENG,,44.785.584.5848,,,,94,102,8.51%
493,WePay,wepay.com,http://www.linkedin.com/company/wepay,Redwood City,CA,,,,,,257,278,8.17%
494,APROPLAN,aproplan.com,https://www.linkedin.com/company/aproplan/,Brussels,BE,BEL,44 20 3318 0039,,,Fortino Capital,59,64,8.47%
495,Kahoot!,kahoot.it,https://www.linkedin.com/company/kahoot,Oslo,NOR,,,,,Creandum/Northzone,72,78,8.33%
496,Tango Card,tangocard.com,https://www.linkedin.com/company/tango-card-inc-,Seattle,WA,,206-937-6342,,,FLOODGATE/Allegro,97,105,8.25%
497,SutiExpense,sutisoft.com,http://www.linkedin.com/company/sutisoft,Los Altos,CA,,650-396-7203,,,,135,146,8.15%
498,Targit,targit.com,https://www.linkedin.com/company/targit,Hj,,,813.933.4600,,,,85,92,8.24%
499,Optimizely,optimizely.com,http://www.linkedin.com/company/optimizely,San Francisco,CA,,(415) 512-7517,,,Index/Benchmark,440,473,7.50%
500,Pipeliner CRM,pipelinersales.com,https://www.linkedin.com/company/pipelinersales-com,Pacific Palisade,CA,,888-843-6699,,,,61,66,8.20%
501,InsightSquared,insightsquared.com,http://www.linkedin.com/company/insightsquared,Boston,MA,,617.370.8100,,,,150,162,8.00%
502,Resolver,resolver.com,http://www.linkedin.com/company/resolver-inc,Toronto,ON,,888-891-5500,,,,190,205,7.89%
503,DealerSocket,dealersocket.com,http://www.linkedin.com/company/dealersocket,San Clemente,CA,,949-900-0300,,,Vista/Meritech,930,992,6.67%
504,Lifesize,lifesize.com,http://www.linkedin.com/company/lifesize-communications,Austin,TX,,512.347.9300,,,NVP/Austin/Redpoint,416,447,7.45%
505,WordStream,wordstream.com,http://www.linkedin.com/company/wordstream,Boston,MA,,617-963-0555,,,,289,311,7.61%
506,Parse,parse.com,http://www.linkedin.com/company/parse,Menlo Park,CA,,408-123-4567,,,,113,122,7.96%
507,PicMonkey,picmonkey.com,http://www.linkedin.com/company/picmonkey,Seattle,WA,,,,,Spectrum Equity,62,67,8.06%
508,Helpshift,helpshift.com,http://www.linkedin.com/company/helpshift,San Francisco,CA,,888,,,,143,154,7.69%
509,PubNub,pubnub.com,https://www.linkedin.com/company/pubnub/,San Francisco,CA,USA,415) 223-7552,,,CISCO,90,97,7.78%
510,SignEasy,getsigneasy.com,http://www.linkedin.com/company/signeasy,San Francisco,CA,,415.123.4567,,,,38,41,7.89%
511,Carbonite,carbonite.com,http://www.linkedin.com/company/carbonite,Boston,MA,,855-227-2249,,,Crosslink/Menlo,827,880,6.41%
512,Qordoba,qordoba.com,https://www.linkedin.com/company/qordoba,San Francisco,CA,USA,,https://www.saastr.com/saastr-podcast-129-may-habib-co-founder-ceo-qordoba-on-how-to-quadruple-mrr-growth-with-sdr-training/,,,52,56,7.69%
513,GNU Emacs,gnu.org,https://www.linkedin.com/company/gnu-project,Boston,MA,,617-542-5942,,,,52,56,7.69%
514,Panopto,panopto.com,http://www.linkedin.com/company/panopto/,Seattle,WA,,855.726.6786,,,,134,144,7.46%
515,Rokt,Rokt.com,https://www.linkedin.com/company/rokt/,Singapore,SNG,,,,,,163,175,7.36%
516,Zudy,zudy.com,http://www.linkedin.com/company/zudy,Miami Beach,FL,,305-763-8287,,,,80,86,7.50%
517,CloudSense,cloudsense.com,http://www.linkedin.com/company/cloudsense-ltd,London,UK,,44-20-7580-6685,,,,280,300,7.14%
518,Calabrio ONE,calabrio.com,http://www.linkedin.com/company/calabrio-inc,Minneapolis,MN,,763-592-4600,,,BlueStream,373,399,6.97%
519,NWEA Assessments,nwea.org,http://www.linkedin.com/company/nwea,Portland,OR,,,,,,771,820,6.36%
520,SimilarWeb,similarweb.com,http://www.linkedin.com/company/similarweb,New York,NY,,,,,Naspers/Moshe Lichtman,487,520,6.78%
521,Impartner,impartner.com,http://www.linkedin.com/company/impartnersoftware,South Jordan,UT,,801-576-8428,,,,136,146,7.35%
522,Freshmail,freshmail.com,https://www.linkedin.com/company/freshmail,London,UK,,,,,,67,72,7.46%
523,Fastpath,gofastpath.com,https://www.linkedin.com/company/fastpath-inc-,Des Moines,IA,,515-276-1779,,,,40,43,7.50%
524,Wwise,audiokinetic.com,http://www.linkedin.com/company/audiokinetic,Montr,QC,,514.499.9100,,,,54,58,7.41%
525,edX,edx.org,http://www.linkedin.com/company/edx,Cambridge,MA,,617-714-7000,,,,302,323,6.95%
526,Brand24,brand24.com,https://www.linkedin.com/company/brand24-s-a,Gainesville,FL,,(718) 618-4483,,,,68,73,7.35%
527,Ontraport,ontraport.com,http://www.linkedin.com/company/ontraport,Santa Barbara,CA,,805-568-1424,,,,110,118,7.27%
528,JobDiva,jobdiva.com,http://www.linkedin.com/company/jobdiva,New York,NY,,866.562.3482,,,,68,73,7.35%
529,NewVoiceMedia,newvoicemedia.com,http://www.linkedin.com/company/newvoicemedia,Basingstoke,,,44-120-720-68888,,,Salesforce/Bessemer,416,444,6.73%
530,iCIMS,icims.com,http://www.linkedin.com/company/icims,Matawan,NJ,,732-847-1941,,,Susquehanna,803,852,6.10%
531,Jebbit,jebbit.com,https://www.linkedin.com/company/jebbit/,Boston,MA,,,,,,69,74,7.25%
532,Namely,namely.com,http://www.linkedin.com/company/namely,New York,NY,,855.626.3591,https://www.saastr.com/saastr-podcast-098-matt-straz-founder-ceo-namely-on-building-namely-into-a-unicorn-business/,,Scale/Sequoia,544,579,6.43%
533,PRTG,paessler.com,https://www.linkedin.com/company/paessler-ag,Agoura Hills,CA,,800-468-4343,,,,127,136,7.09%
534,ManageEngine,manageengine.com,http://www.linkedin.com/company/manageengine-,Pleasanton,CA,,925.924.9500,,,,70,75,7.14%
535,ProntoForms,prontoforms.com,http://www.linkedin.com/company/truecontext,Kanata,ON,,613.599.8288,,,,113,121,7.08%
536,PowerReviews,PowerReviews.com,http://www.linkedin.com/company/powerreviews,Chicago,IL,,,,,,172,184,6.98%
537,Buildium,buildium.com,http://www.linkedin.com/company/buildium-llc,Boston,MA,,888-414-1988,,,,203,217,6.90%
538,ClickMeeting,clickmeeting.com,https://www.linkedin.com/company/clickmeeting,Wilmington,DE,,877.725.4252,,,,56,60,7.14%
539,ThriveHive,thrivehive.com,http://www.linkedin.com/company/thrivehive,Cambridge,MA,,617-390-8040,,,,313,334,6.71%
540,FormAssembly,formassembly.com,http://www.linkedin.com/company/formassembly-com-by-veer-west-llc-,Bloomington,IN,,812.333.6505,,,,42,45,7.14%
541,Celtra,celtra.com,https://www.linkedin.com/company/celtra-inc-/,Boston,MA,,,,,,204,218,6.86%
542,Malwarebytes,malwarebytes.com,http://www.linkedin.com/company/malwarebytes,Santa Clara,CA,,408.852.4336,,,Fidelity/Highland,646,686,6.19%
543,CommuniGator,CommuniGator.co.uk,http://www.linkedin.com/company/communigator,Godalming,UK,,,,,,71,76,7.04%
544,Accelo,accelo.com,https://www.linkedin.com/company/accelo,San Francisco,CA,,415-963-4299,,,Blackbird/Rothenberg,86,92,6.98%
545,MixPanel,mixpanel.com,https://www.linkedin.com/company/mixpanel-inc-,,,,,,,Y Combinator/Andreessen,305,325,6.56%
546,Uberflip,uberflip.com,http://www.linkedin.com/company/uberflip,Toronto,ON,,888-694-2946,,,SaaS Capital,131,140,6.87%
547,FastSpring,fastspring.com,http://www.linkedin.com/company/fastspring,Santa Barbara,CA,,,,,,87,93,6.90%
548,Moodle,moodle.org,https://www.linkedin.com/company/moodle,West Perth,AUS,,,,,,102,109,6.86%
549,Logikcull,logikcull.com,http://www.linkedin.com/company/logik,San Francisco,CA,,800-951-5507,,,,102,109,6.86%
550,SmugMug,smugmug.com,http://www.linkedin.com/company/smugmug,Mountain View,CA,,,,,,117,125,6.84%
551,BrandYourself,brandyourself.com,http://www.linkedin.com/company/brandyourself,New York,NY,,646-863-8226,,,,118,126,6.78%
552,RankWatch,rankwatch.com,https://www.linkedin.com/company/rankwatch,Haryana,IND,IND,,,,,44,47,6.82%
553,Datafox,datafox.com,http://www.linkedin.com/company/datafox,San Francisco,CA,,415-969-2144,,,Goldman/GreenVisor,135,144,6.67%
554,Vindicia,vindicia.com,http://www.linkedin.com/company/vindicia,Redwood City,CA,,,,,,104,111,6.73%
555,ClearCare,clearcareonline.com,http://www.linkedin.com/company/clearcare/,San Francisco,CA,,800-449-0645,,,,104,111,6.73%
556,Relativity,kcura.com,http://www.linkedin.com/company/kcura-corporation,Chicago,IL,,312-263-1177,,,,796,841,5.65%
557,Sellsy,sellsy.com,https://www.linkedin.com/company/easybill,La Rochelle,FR,France,,,,Alto,60,64,6.67%
558,Flight by Canto,canto.com,http://www.linkedin.com/company/canto,San Francisco,CA,,415.495.6545,,,,154,164,6.49%
559,Alfresco,alfresco.com,http://www.linkedin.com/company/alfresco,Maidenhead,,,44-162-887-6500,,,Sapphire/Accel,429,455,6.06%
560,LoadMaster,mcleodsoftware.com,http://www.linkedin.com/company/mcleod-software,Birmingham,,,,,,,392,416,6.12%
561,Arena Solutions,arenasolutions.com,http://www.linkedin.com/company/arena-solutions,Foster City,CA,,650.513.3500,,,,155,165,6.45%
562,JobVite,jobvite.com,http://www.linkedin.com/company/jobvite/employee-insights,San Mateo,CA,,650.376.7200,,,Catalyst/Trident,326,346,6.13%
563,Tagetik,tagetik.com,http://www.linkedin.com/company/tagetik,Lucca,,,39 0583 96811,,,White Bridge,436,462,5.96%
564,Sentient Science,sentientscience.com,https://www.linkedin.com/company/sentient-science-corporation/,Buffalo,NY,,,,,,77,82,6.49%
565,ParkBench,ParkBench.com,https://www.linkedin.com/company/parkbench/,Toronto,ON,,,,,,46,49,6.52%
566,Vtiger,vtiger.com,https://www.linkedin.com/company/vtiger,Bangalore,IND,,,,,,109,116,6.42%
567,AdRoll,adroll.com,https://www.linkedin.com/company/adroll,San Francisco,CA,,415-625-8821,,,Foundation,708,747,5.51%
568,Articulate,articulate.com,http://www.linkedin.com/company/articulate,New York,NY,,646-706-7596,,,,193,205,6.22%
569,Madison Logic,madisonlogic.com,http://www.linkedin.com/company/madison-logic,New York,NY,,646-937-5800,,,,110,117,6.36%
570,Nitro Pro,gonitro.com,https://www.linkedin.com/company/go-nitro,San Francisco,CA,,415.651.4700,,,,144,153,6.25%
571,WebPT,webpt.com,http://www.linkedin.com/company/webpt,Phoenix,AZ,,866-221-1870,,,Battery,318,337,5.97%
572,GoSpotCheck,gospotcheck.com,http://www.linkedin.com/company/gospotcheck,Denver,CO,,888-364-2650,,,Insight/Venture51,164,174,6.10%
573,Bluesnap,Bluesnap.com,http://www.linkedin.com/company/bluesnap,Boston,MA,,,,,,148,157,6.08%
574,BrandMaker,brandmaker.com,http://www.linkedin.com/company/brandmaker,Karlsruhe,GER,,,,,,98,104,6.12%
575,JMP,jmp.com,http://www.linkedin.com/company/jmp,Cary,NC,,919.677.8008,,,,185,196,5.95%
576,Unmetric,unmetric.com,http://www.linkedin.com/company/unmetric-inc-,New York,NY,,855-558-5588,,,,83,88,6.02%
577,JazzHR,jazz.co,https://www.linkedin.com/company/jazz-dot-co,Pittsburgh,PA,,(888) 353-0887,,,,83,88,6.02%
578,Agiloft,agiloft.com,http://www.linkedin.com/company/agiloft,Redwood,CA,,650.587.8615,,,,66,70,6.06%
579,Flashtalking,flashtalking.com,http://www.linkedin.com/company/flashtalking-inc-,London,UK,,-44,,,TA Associates,246,260,5.69%
580,Mix Telematics,mixtelematics.com,https://www.linkedin.com/company/mix-telematics,Birmingham,West Midlands,,44.121.717.5360,,,,929,974,4.84%
581,ClickSoftware,clicksoftware.com,http://www.linkedin.com/company/clicksoftware,Burlington,MA,,781-272-5903,,,,717,753,5.02%
582,PDFelement,pdf.wondershare.com,https://www.linkedin.com/company/wondershare-software,Vancouver,BC,,,,,,269,284,5.58%
583,CompStak,compstak.com,http://www.linkedin.com/company/compstak,New York,NY,,646-926-6707,,,,51,54,5.88%
584,typeform,typeform.com,https://www.linkedin.com/company/typeform-com,Barcelona,SPA,,,,,,195,206,5.64%
585,e-Builder Enterprise,e-builder.net,http://www.linkedin.com/company/e-builder,Ft. Lauderdale,FL,,954-556-6701,,,,233,246,5.58%
586,Trumpia,trumpia.com,http://www.linkedin.com/company/trumpia,Anaheim,CA,,888-707-3030,,,,178,188,5.62%
587,MediaRadar,mediaradar.com,http://www.linkedin.com/company/mediaradar-inc-,New York,NY,,646-652-7000,,,,142,150,5.63%
588,DecisionPoint,decisionpt.com,http://www.linkedin.com/company/decisionpoint-systems-inc.,Irvine,CA,,949.465.0065,,,,52,55,5.77%
589,Tenrox,tenrox.com,http://www.linkedin.com/company/tenrox/,Austin,TX,,877.483.6769,,,,52,55,5.77%
590,bswift,bswift.com,http://www.linkedin.com/company/bswift,Chicago,IL,,312.261.5750,,,Great Hill,686,720,4.96%
591,Alexa,alexa.com,https://www.linkedin.com/company/alexa-internet/,San Francisco,CA,,,,,,70,74,5.71%
592,OrderDynamics,orderdynamics.com,http://www.linkedin.com/company/orderdynamics,Richmond HIll,ON,,866-559-8123,,,,71,75,5.63%
593,VenturePact,VenturePact.com,https://www.linkedin.com/company/venturepact/,New York,NY,,,,,,71,75,5.63%
594,eGain,egain.com,http://www.linkedin.com/company/egain-corporation,Sunnyvale,CA,,408.636.4500,,,,715,749,4.76%
595,Fuze Collaboration,fuze.com,https://www.linkedin.com/company/fuze-inc,Boston,MA,,800-890-1553,,,TCV/Summit,663,695,4.83%
596,Doximity,doximity.com,http://www.linkedin.com/company/doximity/products/,San Francisco,CA,,650-549-4330,,,Draper/Emergence,389,409,5.14%
597,NationBuilder,nationbuilder.com,http://www.linkedin.com/company/nationbuilder,Los Angeles,CA,,213-394-4623,,,Omidyar/Andreessen,147,155,5.44%
598,Cloud Elements,cloud-elements.com,http://www.linkedin.com/company/cloud-elements,Denver,CO,,,,,Harbert/Grotech/Rally,111,117,5.41%
599,Skyward,skyward.com,http://www.linkedin.com/company/skyward,Stevens Point,WI,,,,,Voyager,464,487,4.96%
600,Inbenta,inbenta.com,http://www.linkedin.com/company/inbenta,San Mateo,CA,,(408) 213-8771,,,Level Equity/InverSur,170,179,5.29%
601,Outbrain,outbrain.com,http://www.linkedin.com/company/outbrain/employee-insights,New York,NY,,646-867-0149,,,Susquehanna/Index,667,698,4.65%
602,Global Shop Solutions,globalshopsolutions.com,http://www.linkedin.com/company/global-shop-solutions,The Woodlands,TX,,281.681.1959,,,,214,225,5.14%
603,Apptivo,apptivo.com,http://www.linkedin.com/company/apptivo,Fremont,CA,,762.333.2777,,,,234,246,5.13%
604,Simpli.fi,simpli.fi,http://www.linkedin.com/company/simpli.fi,Fort Worth,TX,,800-840-0768,,,Frontier,258,271,5.04%
605,Hornbill,hornbill.com,http://www.linkedin.com/company/hornbill,Ruislip,UK,UK,,,,,76,80,5.26%
606,UserVoice,uservoice.com,http://www.linkedin.com/company/uservoice,San Francisco,CA,,888-840-0280,,,,57,60,5.26%
607,Conversocial,conversocial.com,http://www.linkedin.com/company/conversocial,New York,NY,,(646) 375 2492,,,,77,81,5.19%
608,Cleo,cleo.com,http://www.linkedin.com/company/cleo-communications,Rockford,IL,,815-639-1039,,,Peterson,262,275,4.96%
609,MapAnything,mapanything.com,http://www.linkedin.com/company/mapanything-inc,Charlotte,NC,,866-547-8016,,,Greycroft/Lighter,178,187,5.06%
610,Foxit PhantomPDF,foxitsoftware.com,http://www.linkedin.com/company/foxit-corporation,Fremont,CA,,510.438.9090,,,,242,254,4.96%
611,Dynamic Signal,dynamicsignal.com,http://www.linkedin.com/company/dynamic-signal,San Bruno,CA,,650-231-2550,,,Akkadian/Microsoft,287,301,4.88%
612,Apptio,apptio.com,http://www.linkedin.com/company/apptio,Bellevue,WA,,866.470.0320,,,Janus/Hillman,865,902,4.28%
613,Accela,accela.com,https://www.linkedin.com/company/accela-inc-/,San Ramon,CA,,925-659-3200,,,ABRY,522,546,4.60%
614,Ingeniux CMS,ingeniux.com,http://www.linkedin.com/company/ingeniux-corporation,Seattle,WA,,206.788.4300,,,,39,41,5.13%
615,Sigstr,sigstr.com,http://www.linkedin.com/company/sigstr,Indianapolis,IN,,317.200.3702,,,,140,147,5.00%
616,Docker,docker.com,https://www.linkedin.com/company/docker,San Francisco,CA,,650-224-5969,,,Y Combinator/Insight,514,537,4.47%
617,Respond,respond-software.com,https://www.linkedin.com/company/respond-software-inc.,,,,,,,,40,42,5.00%
618,Acquia,acquia.com,http://www.linkedin.com/company/acquia/employee-insights,Boston,MA,,781.238.8600,,,Amazon/NEA,818,852,4.16%
619,Avangate,avangate.com,http://www.linkedin.com/company/avangate,Atlanta,GA,,650.249.5280,,,,188,197,4.79%
620,Skyslope,skyslope.com,http://www.linkedin.com/company/skyslope,Sacramento,CA,,800-507-4117,,,,102,107,4.90%
621,LifeRay,liferay.com,https://www.linkedin.com/company/liferay-inc-,Diamond Bar,CA,,877.543.3729,,,,805,838,4.10%
622,Engagor,clarabridge.com,http://www.linkedin.com/company/clarabridge,Reston,VA,,800.239.7515,,,Hummingbird,260,272,4.62%
623,Birst,birst.com,http://www.linkedin.com/company/birst,San Francisco,CA,,415-766-4800,,,Wellington/Sequoia,219,229,4.57%
624,Joomla,joomla.org,http://www.linkedin.com/company/joomla,Toronto,ON,,,,,,151,158,4.64%
625,Nuxeo Platform,nuxeo.com,http://www.linkedin.com/company/nuxeo,Brooklyn,NY,,800.544.2676,,,Kennet/Goldman,151,158,4.64%
626,Apptricity,apptricity.com,http://www.linkedin.com/company/apptricity,Irving,TX,,214-596-0601,,,,85,89,4.71%
627,AppointmentPlus,appointment-plus.com,http://www.linkedin.com/company/appointment-plus,Scottsdale,AZ,,480.483.1199,,,,85,89,4.71%
628,Sucuri,sucuri.net,http://www.linkedin.com/company/sucuri-security,Fredericton,NB,,888.873.0817,,,,64,67,4.69%
629,elcomCMS,elcomcms.com,https://www.linkedin.com/company/elcom,San Francisco,CA,,917.628.2373,,,,247,258,4.45%
630,CoSchedule,coschedule.com,http://www.linkedin.com/company/coschedule,Bismarck,ND,,701-595-0567,,https://www.emergingprairie.com/coschedule-reaches-2m-reocurring-revenue/,Gen7/Jay Baer,66,69,4.55%
631,K2 BlackPearl,k2.com,http://www.linkedin.com/company/k2,Bellevue,WA,,425-883-4200,,,Francisco,573,596,4.01%
632,CallPage,callpage.io,https://www.linkedin.com/company/call-page,Krak,,,48-796-155-216,,,,67,70,4.48%
633,Braintree,braintreepayments.com,http://www.linkedin.com/company/braintree,Chicago,IL,,,,,NEA/Accel,643,668,3.89%
634,Threatmetrix,threatmetrix.com,http://www.linkedin.com/company/threatmetrix,San Jose,CA,,408-200-5700,,,,259,270,4.25%
635,Spark Hire,sparkhire.com,http://www.linkedin.com/company/spark-hire-inc-,Northbrook,IL,,800-219-0480,,,,45,47,4.44%
636,Kenshoo,kenshoo.com,http://www.linkedin.com/company/kenshoo,Tel Aviv,ISR,,415-536-2830,,,Bain/Sequoia,604,627,3.81%
637,Gryphon Networks,gryphonnetworks.com,http://www.linkedin.com/company/gryphon-networks,Norwood,MA,,866-366-6822,,,,70,73,4.29%
638,Cylance,cylance.com,https://www.linkedin.com/company/cylanceinc/,Irvine,CA,USA,949-565-3505,,,,904,936,3.54%
639,j2 Global,j2global.com,http://www.linkedin.com/company/j2-global,Los Angeles,CA,,323.860.9200,,,,774,802,3.62%
640,Aria Systems,ariasystems.com,http://www.linkedin.com/company/aria-systems/,San Francisco,CA,,415-852-7250,,,,147,153,4.08%
641,HireVue,hirevue.com,http://www.linkedin.com/company/hirevue,South Jordan,UT,,801-316-2910,,https://growtheverywhere.com/growth-everywhere-interview/mark-newman/,,334,347,3.89%
642,Nakisa,nakisa.com,http://www.linkedin.com/company/nakisa,Montreal,QC,,514.228.2000,,,,253,263,3.95%
643,Astea FieldCentrix,astea.com,http://www.linkedin.com/company/astea,Horsham,PA,,800-347-7334,,,,202,210,3.96%
644,Chartbeat,chartbeat.com,https://www.linkedin.com/company/chartbeat/,New York,NY,,646-786-8472,,,,74,77,4.05%
645,Motionsoft,motionsoft.net,http://www.linkedin.com/company/motionsoft,Rockville,MD,,301-255-6400,,,,100,104,4.00%
646,ACL Analytics,acl.com,http://www.linkedin.com/company/acl,Vancouver,BC,,604.669.4225,,,,902,932,3.33%
647,Clarizen,clarizen.com,http://www.linkedin.com/company/clarizen,San Mateo,CA,,866.502.9813,,,,206,214,3.88%
648,RentWorks,rentworks.co.za,https://www.linkedin.com/company/rentworks-africa-pty-ltd-,Bryanston,,,,,,,101,105,3.96%
649,Attendify,attendify.com,http://www.linkedin.com/company/attendify,San Francisco,CA,,866-944-8678,,,,76,79,3.95%
650,Payscale,payscale.com,http://www.linkedin.com/company/payscale-inc.,Seattle,WA,,206.223.7590,,,Sapphire/Trinity,475,492,3.58%
651,FishEye,fisheye.net,http://www.linkedin.com/company/fisheye-software,Maynard,MA,,978-461-0100,,,,51,53,3.92%
652,clickdimensions,clickdimensions.com,http://www.linkedin.com/company/clickdimensions,Atlanta,GA,,,,,,185,192,3.78%
653,Terminus,terminus.com,https://www.linkedin.com/company/terminus-account-based-marketing/,Atlanta,GA,,,,,,159,165,3.77%
654,Conga,getconga.com,http://www.linkedin.com/company/conga,Broomfield,CO,,303.465.161,,https://www.readitquik.com/news/off-premises/congas-customers-double-yoy/,Salesforce,453,469,3.53%
655,TeamSnap,teamsnap.com,https://www.linkedin.com/company/teamsnap,Boulder,CO,,,,,Access Venture,132,137,3.79%
656,InMotion Hosting,inmotionhosting.com,http://www.linkedin.com/company/inmotion-hosting,Los Angeles,CA,,888-321-4678,,,,248,257,3.63%
657,EngineerBabu,engineerbabu.com,https://www.linkedin.com/company/engineerbabu,Indore,Madhya Pradesh,,91.822 500 7007,,,Scale Ventures,79,82,3.80%
658,Pathmatics,Pathmatics.com,https://www.linkedin.com/company/pathmatics-inc,Santa Monica,CA,,,,,,53,55,3.77%
659,Church Community Builder,churchcommunitybuilder.com,http://www.linkedin.com/company/church-community-builder,Colorado Springs,CO,,,,,,108,112,3.70%
660,SaltStack,saltstack.com,http://www.linkedin.com/company/salt-stack-inc,Lehi,UT,,801.207.7440,,,,82,85,3.66%
661,ON24,on24.com,http://www.linkedin.com/company/on24,San Francisco,CA,,415-369-8000,,,RHO/USVP,521,538,3.26%
662,GetResponse,getresponse.com,http://www.linkedin.com/company/getresponse,Wilmington,DE,,877-362-4547,,,,351,363,3.42%
663,Sciforma,sciforma.com,http://www.linkedin.com/company/sciforma-corporation,Los Gatos,CA,,408.354.0144,,,,113,117,3.54%
664,Market Leader,marketleader.com,https://linkedin.com/company/market-leader,Bellevue,WA,,425-952-5500,,,,235,243,3.40%
665,ServiceMax,servicemax.com,http://www.linkedin.com/company/servicemax,Pleasanton,CA,,925-965-7859,,,Crosslink/Mayfield,534,551,3.18%
666,Vonage,enterprise.vonage.com,https://www.linkedin.com/company/vonagebusiness,Holmdel,NJ,,732.528.2600,,,Bain/NEA/Meritech,697,718,3.01%
667,FreeConferenceCall.com,freeconferencecall.com,http://www.linkedin.com/company/freeconferencecall.com,Long Beach,CA,,562.437.1411,,,,88,91,3.41%
668,Cloudways,cloudways.com,https://www.linkedin.com/company/cloudways,Mosta,MT,,44 330 001 0338,,,,59,61,3.39%
669,PubMatic,pubmatic.com,http://www.linkedin.com/company/pubmatic/activity,Redwood City,CA,,650-331-3485,,,Nokia/Nexus,490,505,3.06%
670,Constant Contact,constantcontact.com,http://www.linkedin.com/company/constant-contact,Waltham,MA,,781-472-8100,,,Greylock,830,853,2.77%
671,Prophix Software,prophix.com,http://www.linkedin.com/company/prophix-software,Mississauga,ON,,905-279-8711,,,,256,264,3.13%
672,screenflow,telestream.net,http://www.linkedin.com/company/telestream,Nevada City,CA,,530.470.1300,,,,293,302,3.07%
673,Kaseya BMS,kaseya.com,http://www.linkedin.com/company/kaseya,Waltham,MA,,415.694.5700,,,IVP/Whitman,521,536,2.88%
674,Acquisio,acquisio.com,http://www.linkedin.com/company/acquisio,Brossard,,,450-465-2631,,,,130,134,3.08%
675,Stackla,stackla.com,https://www.linkedin.com/company/stackla/,Crows Nest,NSW,,61-2-8999-0555,,,,64,66,3.13%
676,erecruit,erecruit.com,http://www.linkedin.com/company/erecruit---enterprise-staffing-software,Boston,MA,,617.391.0533,,,,166,171,3.01%
677,Capture One Pro,phaseone.com,http://www.linkedin.com/company/phase-one,Frederiksberg,DK,,,,,,308,317,2.92%
678,TrendKite,trendkite.com,http://www.linkedin.com/company/trendkite,Austin,TX,,512-298-0100,,https://techcrunch.com/2016/11/04/trendkite-series-d/,Mercury/Adams,236,243,2.97%
679,LiveHelpNow,livehelpnow.net,http://www.linkedin.com/company/livehelpnow,Willow Grove,PA,,877.548.3001,,,,65,67,3.08%
680,ShoreTel,shoretel.com,http://www.linkedin.com/company/shoretel,Sunnyvale,CA,,408.331.3300,,,Crosspoint/Lehman,971,995,2.47%
681,FreshBooks,freshbooks.com,https://www.linkedin.com/company/freshbooks,Toronto,ON,,416-481-6946,,,,279,287,2.87%
682,SocialChorus,socialchorus.com,http://www.linkedin.com/company/socialchorus,San Francisco,CA,,415.655.2700,,,,137,141,2.92%
683,JReport,jinfonet.com,http://www.linkedin.com/company/jinfonet-software/,Rockville,MD,,240.477.1000,,,,68,70,2.94%
684,Host Analytics,hostanalytics.com,https://www.linkedin.com/company/host-analytics-inc,Redwood City,CA,,650-249-7100,,,Centerview/NextWorld,326,335,2.76%
685,Stitch Labs,stitchlabs.com,http://www.linkedin.com/company/stitch-labs-inc-,San Francisco,CA,,415.323.0630,,,,69,71,2.90%
686,Contactually,contactually.com,http://www.linkedin.com/company/contactually,Washington,DC,,202.770.3777,,,Grotech/Rally/Flight,71,73,2.82%
687,Mailjet,mailjet.com,http://www.linkedin.com/company/mailjet,Paris,FRA,,,,,,110,113,2.73%
688,OpenStack,openstack.org,http://www.linkedin.com/company/openstack,Austin,TX,,512-539-1154,,,,225,231,2.67%
689,Mintigo,mintigo.com,http://www.linkedin.com/company/mintigo,San Mateo,CA,,650.278.4180,,,,73,75,2.74%
690,SendGrid,sendgrid.com,http://www.linkedin.com/company/sendgrid,Denver,CO,,303-552-0653,,,Bain/Bessemer,456,467,2.41%
691,MobileIron,mobileiron.com,http://www.linkedin.com/company/mobileiron,Mountain View,CA,,650-919-8100,,,IVP/Norwest/Sequoia,942,962,2.12%
692,Calyx Point,calyxsoftware.com,http://www.linkedin.com/company/calyx-software,San Jose,CA,,408-997-5525,,,,159,163,2.52%
693,XMind,xmind.net,https://www.linkedin.com/company/xmind-ltd,,,,1-415-501-0682,,,,39,40,2.56%
694,Dubber,dubber.net,http://www.linkedin.com/company/dubber,Melbourne,AUS,,,,,,39,40,2.56%
695,Lynda.com,lynda.com,https://www.linkedin.com/company/lynda-com/,Carpinteria,CA,,,,,Accel/Spectrum,482,493,2.28%
696,volusion,volusion.com,http://www.linkedin.com/company/volusion/employee-insights,Austin,TX,,,,,,300,307,2.33%
697,Cognitev,cognitev.com,https://www.linkedin.com/company/cognitev,Dubai,Dubai,Dubai,,,,Accelero,40,41,2.50%
698,Lingvist,lingvist.com,https://www.linkedin.com/company/lingvist,Tallinn,,,,,,,40,41,2.50%
699,Q360 PSA Solution,solutions360.com,http://www.linkedin.com/company/solutions360-inc.,Newmarket,ON,,800.450.7748,,,,41,42,2.44%
700,MyCase,mycase.com,http://www.linkedin.com/company/mycase,Goleta,CA,,800-571-8062,,,,41,42,2.44%
701,moxtra,moxtra.com,http://www.linkedin.com/company/moxtra,Cupertino,CA,,408.498.9217,,,,84,86,2.38%
702,Work Market,workmarket.com,http://www.linkedin.com/company/work-market/employee-insights,Huntington,NY,,212-229-9675,,,Foundry/Union Square,511,522,2.15%
703,Ipro Allegro,iprotech.com,http://www.linkedin.com/company/ipro-tech,Tempe,AZ,,602-324-4776,,,,172,176,2.33%
704,Infinite Campus,infinitecampus.com,http://www.linkedin.com/company/infinite-campus,Minneapolis,MN,,,,,,363,371,2.20%
705,Actian,actian.com,https://www.linkedin.com/company/actian-corporation,Palo Alto,CA,,650-587-5500,,,,316,323,2.22%
706,Leadfeeder,leadfeeder.com,https://www.linkedin.com/company/leadfeeder,Helsinki,,,,,,,42,43,2.38%
707,Edmodo,edmodo.com,http://www.linkedin.com/company/edmodo,San Mateo,CA,,650-513-2735,,,,135,138,2.22%
708,Winmo,winmo.com,https://www.linkedin.com/company/winmo-sales-intelligence,Atlanta,GA,,800-941-6562,,,,45,46,2.22%
709,Avira,avira.com,https://www.linkedin.com/company/avira-gmbh,San Francisco,CA,,800.403.7019,,,,406,414,1.97%
710,Corporate360,Corporate360.us,https://www.linkedin.com/company/corporate-360/,San Francisco,CA,,,,,,243,248,2.06%
711,Path LMS,blueskyelearn.com,https://www.linkedin.com/company/blue-sky-elearn,San Diego,CA,,(858) 900-2223,,,,47,48,2.13%
712,RapidMiner,rapidminer.com,https://www.linkedin.com/company/rapidminer,Boston,MA,,617.401.7708,,,,95,97,2.11%
713,Belly,bellycard.com,http://www.linkedin.com/company/belly,Chicago,IL,,866-620-3534,,,,49,50,2.04%
714,NetX,netx.net,https://www.linkedin.com/company/netx.,Portland,OR,,503.499.4342,,,,49,50,2.04%
715,EverString,everstring.com,http://www.linkedin.com/company/everstring-technology,San Mateo,CA,,650-425-3937,,,Lightspeed,101,103,1.98%
716,BQE,bqesoftware.com,https://www.linkedin.com/company/bqe-software,Torrance,CA,USA,,,,,207,211,1.93%
717,dotloop,dotloop.com,http://www.linkedin.com/company/dotloop,Cincinnati,OH,,513-257-0550,,,,160,163,1.88%
718,Certain Event Automation,certain.com,http://www.linkedin.com/company/certain-inc-,San Francisco,CA,,415-353-5330,,,,106,108,1.89%
719,Yellowfin BI,yellowfinbi.com,https://www.linkedin.com/company/yellowfin,Melbourne,VA,,61.3.8617.4954,,,,108,110,1.85%
720,Cygilant,Cygilant.com,https://www.linkedin.com/company/cygilant/,Boston,MA,,,,,,111,113,1.80%
721,Brainshark,brainshark.com,http://www.linkedin.com/company/brainshark,Waltham,MA,,781-370-8000,,,,240,244,1.67%
722,Animoto,animoto.com,http://www.linkedin.com/company/animoto/,New York,NY,,415-423-1923,,,,116,118,1.72%
723,Shareablee,shareablee.com,http://www.linkedin.com/company/shareablee-inc,New York,NY,,212-964-0736,,,SoftBank,57,58,1.75%
724,Jenzabar SONIS,jenzabar.com,http://www.linkedin.com/company/jenzabar,Boston,MA,,,,,Omnicom,371,377,1.62%
725,Digimind Social,digimind.com,http://www.linkedin.com/company/digimind,Cambridge,MA,,800-510-3790,,,,251,255,1.59%
726,Extensis Portfolio,extensis.com,http://www.linkedin.com/company/extensis,Portland,OR,,503.274.2020,,,,124,126,1.61%
727,BrandpointHUB,hub.brandpoint.com,https://www.linkedin.com/company/brandpoint,Hopkins,MN,,952-278-0780,,,,64,65,1.56%
728,RoboForm,roboform.com,https://www.linkedin.com/company/siber-systems,Fairfax,VA,,703.218.1851,,,,65,66,1.54%
729,ConnectLeader,connectleader.com,http://www.linkedin.com/company/connectleader,Salem,NH,,603.952.2500,,,,67,68,1.49%
730,BillQuick,billquickonline.com,https://www.linkedin.com/company/bqe-software,Torrance,CA,,888) 530 3085,,,,207,210,1.45%
731,NetBase,netbase.com,https://www.linkedin.com/company/netbase-solutions-inc-,Santa Clara,CA,,650-810-2100,,,,142,144,1.41%
732,Ranorex,ranorex.com,http://www.linkedin.com/company/ranorex-gmbh,Clearwater,FL,,727.835.5570,,,,69,70,1.45%
733,Devolutions,devolutions.net,http://www.linkedin.com/company/devolutions-inc-,Lavaltrie,QC,,888.935.0608,,,,71,72,1.41%
734,Fusion,blackmagicdesign.com,https://www.linkedin.com/company/blackmagic-design,Fremont,CA,,408-954-0500,,,,474,480,1.27%
735,Confirmit,confirmit.com,http://www.linkedin.com/company/confirmit,New York,NY,,212-660-1800,,,,391,396,1.28%
736,Zerys,zerys.com,http://www.linkedin.com/company/zerys,Chardon,OH,,888-864-8398,,,,73,74,1.37%
737,Blurb,blurb.com,http://www.linkedin.com/company/blurb,San Francisco,CA,,415-364-6300,,,,156,158,1.28%
738,Workforce Softweare,workforcesoftware.com,http://www.linkedin.com/company/workforce-software,Livonia,MI,,734.542.4100,,,Insight/Triangle,525,531,1.14%
739,CELUM,celum.com,https://www.linkedin.com/company/celum,Linz,,,844.444.8420,,,,78,79,1.28%
740,Vuture,vutu.re,https://www.linkedin.com/company/vuture,London,ENG,ENG,,,,Bootstrapped,79,80,1.27%
741,Xactly,xactlycorp.com,http://www.linkedin.com/company/xactly-corporation,San Jose,CA,,408.977.3132,,,Bridgescale/Cheyenne Capital,667,674,1.05%
742,GrabCAD Workbench,grabcad.com,http://www.linkedin.com/company/grabcad,Cambridge,MA,,857.366.6780,,,,85,86,1.18%
743,Aerospike,aerospike.com,http://www.linkedin.com/company/aerospike-inc-,Mountain View,CA,,408-462-2376,,,NEA,85,86,1.18%
744,kintone,kintone.com,https://www.linkedin.com/company/kintoneusa/,San Francisco,CA,,415-255-3019,,,,88,89,1.14%
745,Smartling,smartling.com,http://www.linkedin.com/company/smartling/blank,New York,NY,,866.707.6278,,,,181,183,1.10%
746,Act-On,act-on.com,http://www.linkedin.com/company/act-on-software-inc.,Neuilly s/seine,,,(319) 337-1270,,,TCV/NVP/Trinity/USVP,283,286,1.06%
747,BetterWorks,betterworks.com,http://www.linkedin.com/company/betterworks,Redwood City,CA,,844.438.2388,,,,92,93,1.09%
748,Return Path,returnpath.com,http://www.linkedin.com/company/return-path,New York,NY,,212-905-5500,,,Union Square/Vista,496,501,1.01%
749,Zimbra Collaboration,zimbra.com,http://www.linkedin.com/company/zimbra,Frisco,TX,,877.492.9484,,,,94,95,1.06%
750,FUEL CYCLE,fuelcycle.com,https://www.linkedin.com/company/fuelcycle,Los Angeles,CA,,323-863-3179,,,StarVest/Steamboat,97,98,1.03%
751,Codecademy,codecademy.com,http://www.linkedin.com/company/codecademy,New York City,NY,,970-515-6442,,,,196,198,1.02%
752,Huddle,huddle.com,http://www.linkedin.com/company/huddle,London,UK,,44-870-977-2212,,,,103,104,0.97%
753,WatchGuard,watchguard.com,http://www.linkedin.com/company/watchguard-technologies,Seattle,WA,,206.613.6600,,,IDG,699,705,0.86%
754,SwiftPage,swiftpage.com,https://www.linkedin.com/company/swiftpage/,Denver,CO,,,,,,212,214,0.94%
755,Squiz Matrix,squiz.net,https://www.linkedin.com/company/squiz,Sydney,NSW,,44.20.7183.6801,,,,344,347,0.87%
756,Panorama Necto,panorama.com,http://www.linkedin.com/company/panorama-software,Toronto,ON,,877.709.5848,,,,125,126,0.80%
757,Listrak,Listrak.com,http://www.linkedin.com/company/listrak,Lititz,PA,,,,,,288,290,0.69%
758,Yotpo,yotpo.com,http://www.linkedin.com/company/yotpo,New York City,NY,,646-977-7959,,,Bessemer/Marker,305,307,0.66%
759,NGP VAN,ngpvan.com,http://www.linkedin.com/company/ngp-van,Washington,DC,,202-686-9330,,,,163,164,0.61%
760,Adestra,adestra.com,https://www.linkedin.com/company/adestra,Oxford,UK,,,,,,167,168,0.60%
761,Network Solutions,networksolutions.com,http://www.linkedin.com/company/network-solutions,Herndon,VA,,570-708-8788,,,General Atlantic,738,741,0.41%
762,Vendasta,vendasta.com,http://www.linkedin.com/company/vendasta-technologies-inc-,Saskatoon,SK,,306-955-5512,,,,264,265,0.38%
763,Couchbase,couchbase.com,http://www.linkedin.com/company/couchbase,San Francisco,CA,,650-417-7500,,,Accel/Mayfield,385,386,0.26%
764,Replicon,replicon.com,http://www.linkedin.com/company/replicon,Redwood City,CA,,650.286.9200,,,Emergence/Social,527,528,0.19%
765,Cleverbridge,cleverbridge.com,http://www.linkedin.com/company/cleverbridge,Cologne,GER,,,,,,252,252,0.00%
766,BurrellesLuce WorkFlow,burrellesluce.com,http://www.linkedin.com/company/burrellesluce,Florham Park,NJ,,973-992-6600,,,,180,180,0.00%
767,Monetate,monetate.com,https://www.linkedin.com/company/monetate-inc-,Conshohocken,PA,,484.323.6313,,,,154,154,0.00%
768,Qstream,qstream.com,http://www.linkedin.com/company/qstream,Burlington,MA,,781-222-2020,,,,81,81,0.00%
769,Lattice Engines,lattice-engines.com,http://www.linkedin.com/company/lattice-engines,San Mateo,CA,,877-460-0010,,,,139,139,0.00%
770,Unanet,unanet.com,http://www.linkedin.com/company/unanet-technologies,Dulles,VA,,703.689.9440,,,,155,155,0.00%
771,MindTouch,mindtouch.com,https://www.linkedin.com/company/mindtouch,San Diego,CA,,619-795-8459,,,,103,103,0.00%
772,MailUp,mailup.com,https://www.linkedin.com/company/mailup,Milano,ITA,,888-962-4587,,,,112,112,0.00%
773,Greater Giving,greatergiving.com,http://www.linkedin.com/company/greater-giving,Beaverton,OR,,800-276-5992,,,,113,113,0.00%
774,LeadSpace,leadspace.com,http://www.linkedin.com/company/leadspace-,San Francisco,CA,,855-532-3772,,,,100,100,0.00%
775,Kapost,kapost.com,http://www.linkedin.com/company/kapost,Boulder,CO,,720-446-9085,,,,103,103,0.00%
776,Highfive,highfive.com,https://www.linkedin.com/company/highfive-inc,Redwood City,CA,,650.319.7483,,,,109,109,0.00%
777,eFileCabinet,efilecabinet.com,http://www.linkedin.com/company/efilecabinet,Lehi,UT,,801.374.5505,,,,75,75,0.00%
778,Bitnami,bitnami.com,http://www.linkedin.com/company/bitnami,San Francisco,CA,,415-318-3470,,,,73,73,0.00%
779,BrandsEye,brandseye.com,https://www.linkedin.com/company/brandseye,Cape Town,,,27 21 467 5960,,,,85,85,0.00%
780,ReviewTrackers,reviewtrackers.com,http://www.linkedin.com/company/review-trackers,Chicago,IL,,866-854-7670,,,American Family/CSA,50,50,0.00%
781,InetSoft,inetsoft.com,http://www.linkedin.com/company/inetsoft,Piscataway,NJ,,888.216.2353,,,,60,60,0.00%
782,Piktochart,piktochart.com,https://www.linkedin.com/company/piktochart,Bayan Lepas,Penang,,1-229-518-1121,,,,53,53,0.00%
783,XWIKI,xwiki.com,https://www.linkedin.com/company/xwiki,Paris,FRA,,33 (0)1 45 42 40 90,,,,49,49,0.00%
784,crowdSPRING,crowdspring.com,http://www.linkedin.com/company/crowdspring,Chicago,IL,,312.589.6853,,,,57,57,0.00%
785,Core-apps,core-apps.com,http://www.linkedin.com/company/core-apps,Arnold,MD,,443-424-2673,,,,42,42,0.00%
786,Swagbucks,swagbucks.com,http://www.linkedin.com/company/swagbucks,Brooklyn,NY,,877.748.2714,,,,46,46,0.00%
787,Schoology,schoology.com,http://www.linkedin.com/company/schoology,Hastings,,,,,,JMI/FirstMark,279,279,0.00%
788,Salesfusion,Salesfusion.com,http://www.linkedin.com/company/salesfusion,Atlanta,GA,,,,,,54,54,0.00%
789,Autopilot HQ,autopilothq.com,https://www.linkedin.com/company/autopilot-hq,San Francisco,CA,,,http://thisisvest.com/featured-founder/mike-sharkey/,https://www.linkedin.com/pulse/strategies-behind-autopilots-growth-from-0-2000-customers-guy-marion,Blackbird,60,60,0.00%
790,outboundengine,outboundengine.com,http://www.linkedin.com/company/outboundengine,Austin,TX,,,,,S3/Silverton,362,362,0.00%
791,Bright Pattern,brightpattern.com,https://www.linkedin.com/company/bright-pattern-inc-,San Bruno,CA,USA,,,,Aspect,48,48,0.00%
792,Unleashed,unleashedsoftware.com,https://www.linkedin.com/company/unleashed-software,Auckland,NZ,,415 767 5777,,,,77,77,0.00%
793,MediaBeacon,mediabeacon.com,http://www.linkedin.com/company/mediabeacon,Minneapolis,MN,,612.317.0737,,,,48,48,0.00%
794,Pulsar,pulsar-pm.com,http://www.linkedin.com/company/pulsar-process-measurement-ltd,Malvern,Worcestershire,,44--870-603-9112,,,,40,40,0.00%
795,Servoy,servoy.com,http://www.linkedin.com/company/servoy,Amsterdam,NET,,805.624.4959,,,,43,43,0.00%
796,Performance Pro,hrperformancesolutions.net,http://www.linkedin.com/company/hr-performance-solutions,Livonia,MI,,734.793.6314,,,,57,57,0.00%
797,Duo Security,duo.com,http://www.linkedin.com/company/duo-security,Ann Arbor,MI,,734.330.2673,,,Redpoint/GV,697,696,-0.14%
798,Bynder,bynder.com,https://www.linkedin.com/company/bynder,Boston,MA,,857.310.5098,,,Insight,293,292,-0.34%
799,blogdash,blogdash.com,http://www.linkedin.com/company/blogdash.com,New York,NY,,,,,Bootstrapped,293,292,-0.34%
800,AeroHive,aerohive.com,http://www.linkedin.com/company/aerohive-networks,Milipitas,CA,,408.510.6100,,,Apogee/NEA/IVP,553,551,-0.36%
801,Censhare,censhare.com,https://www.linkedin.com/company/censhare-ag,San Francisco,CA,,415.655.6830,,,,263,262,-0.38%
802,Kentico,kentico.com,http://www.linkedin.com/company/kentico-software,Brno,,,866.328.8998,,,Bootstrapped,239,238,-0.42%
803,Visual LANSA,lansa.com,http://www.linkedin.com/company/lansa,Downers Grove,IL,,630.874.7000,,,,185,184,-0.54%
804,Ipower,ipower.com,http://www.linkedin.com/company/ipower,Phoenix,AZ,,888-511-4678,,,,175,174,-0.57%
805,Unanet,unanet.com,https://www.linkedin.com/company/unanet-technologies/,Dulles,VA,USA,703 689 9440,,,Bootstrapped,156,155,-0.64%
806,IgnitionOne,ignitionone.com,http://www.linkedin.com/company/ignitionone,New York,NY,,404-961-9200,,,Horizon/Softbank,331,329,-0.60%
807,Plivo,plivo.com,http://www.linkedin.com/company/plivo-inc,San Francisco,CA,,855-467-5486,,,Y Combinator/Andressen,157,156,-0.64%
808,Deem,deem.com,http://www.linkedin.com/company/deeminc,San Francisco,CA,,415-590-8300,,,PointGuard/JP Morgan,309,307,-0.65%
809,Parallels,parallels.com,http://www.linkedin.com/company/parallels,Renton,WA,,425.282.6400,,,Bessemer,465,462,-0.65%
810,aweber,aweber.com,https://www.linkedin.com/company/aweber-communications-inc-,Chalfont,PA,USA,,,,,138,137,-0.72%
811,Evite,evite.com,http://www.linkedin.com/company/evite,Hollywood,CA,,310-360-2427,,,,131,130,-0.76%
812,ipswitch,ipswitch.com,https://www.linkedin.com/company/ipswitch-inc-,Lexington,MA,,781.676.5700,,,,280,278,-0.71%
813,KeyedIn,keyedin.com,http://www.linkedin.com/company/keyedin-solutions-inc-,Minneapolis,MN,,952.835.1041,,,,121,120,-0.83%
814,HostGator,hostgator.com,https://www.linkedin.com/company/hostgator-com,Houston,TX,,713-574-5287,,,,364,361,-0.82%
815,LevelUp,thelevelup.com,http://www.linkedin.com/company/levelup,Boston,MA,,855-538-3542,,,,217,215,-0.92%
816,SteelHouse,steelhouse.com,http://www.linkedin.com/company/steelhouse,Culver City,CA,,,,,,207,205,-0.97%
817,Talisma,talisma.com,https://www.linkedin.com/company/talisma,Boca Raton,FL,,,,,Oak/Madrona,396,392,-1.01%
818,FusionCharts,FusionCharts.com,https://www.linkedin.com/company/fusioncharts,Kolkata,IND,,,,,,83,82,-1.20%
819,TalentReef,talentreef.com,https://www.linkedin.com/company/talentreef/,Denver,CO,USA,303) 974-4835,,,,165,163,-1.21%
820,leanplum,leanplum.me,https://www.linkedin.com/company/leanplum,San Francisco,CA,,,,,Canaan/Kleiner,238,235,-1.26%
821,Ensighten,ensighten.com,http://www.linkedin.com/company/ensighten,San Jose,CA,,650-249-4712,,,,73,72,-1.37%
822,RingLead,ringlead.com,https://www.linkedin.com/company/ringlead-inc-,Melville,NY,,888-240-8088,,,,72,71,-1.39%
823,Cirrus Insight,cirrusinsight.com,https://www.linkedin.com/company/cirruspath/,Irvine,CA,,949-232-0959,,,,70,69,-1.43%
824,Encompass,encompasscorporation.com,http://www.linkedin.com/company/encompass-corporation,Glasgow,IRE,,0333 772 0002,,,,69,68,-1.45%
825,TrackVia,trackvia.com,http://www.linkedin.com/company/trackvia-inc,Denver,CO,,720-625-3460,,,,70,69,-1.43%
826,NewsCred,newscred.com,http://www.linkedin.com/company/newscred,New York,NY,,212.989.4100,,,,217,214,-1.38%
827,SilkRoad,silkroad.com,http://www.linkedin.com/company/silkroad,Chicago,IL,,312.574.3700,,,Foundation,453,447,-1.32%
828,Planview,planview.com,http://www.linkedin.com/company/planview,Austin,TX,,512.346.8600,,,Insight,697,688,-1.29%
829,Patriot Software,patriotsoftware.com,https://www.linkedin.com/company/patriot-software,Canton,OH,USA,,,,,65,64,-1.54%
830,Patriot Software,PatriotSoftware.com,https://www.linkedin.com/company/patriot-software/,Canton,OH,,330-455-9218,,,,65,64,-1.54%
831,BizInsight,biznetsoftware.com,https://www.linkedin.com/company/biznetsoftware/,Dallas,TX,,888.803.5227,,,,65,64,-1.54%
832,CallSource,callsource.com,http://www.linkedin.com/company/callsource,Westlake Village,CA,,800-500-4433,,,,192,189,-1.56%
833,Demandbase,demandbase.com,http://www.linkedin.com/company/demandbase,San Francisco,CA,,415-683-2660,,,Scale/Sutter Hill,327,322,-1.53%
834,Mavenlink,mavenlink.com,http://www.linkedin.com/company/mavenlink,Irvine,CA,,949.336.7610,,,Goldman/Carrick,326,321,-1.53%
835,BoomTown,boomtownroi.com,http://www.linkedin.com/company/boomtown---real-estate-web-platform,Charleston,SC,,844-741-7133,,,,256,252,-1.56%
836,Sencha,sencha.com,http://www.linkedin.com/company/sencha-inc,Redwood City,CA,,650-299-9550,,,,61,60,-1.64%
837,WoodWing Elvis DAM,woodwing.com,http://www.linkedin.com/company/woodwing,Detroit,MI,,313.962.0542,,,,121,119,-1.65%
838,PCRecruiter,pcrecruiter.net,http://www.linkedin.com/company/main-sequence-technology,Willoughby,OH,,440.946.5214,,,,58,57,-1.72%
839,Hot Prospector,hotprospector.com,http://www.linkedin.com/company/hot-prospector,San Francisco,CA,,408-667-2239,,,,54,53,-1.85%
840,ClearView CRM,softrek.com,http://www.linkedin.com/company/softrek-corporation,Amherst,NY,,,,,,52,51,-1.92%
841,iRise,irise.com,http://www.linkedin.com/company/irise,El Segundo,CA,,,,,,51,50,-1.96%
842,CollabNet,collab.net,http://www.linkedin.com/company/collabnet-inc,San Francisco,CA,,650-228-2500,,,NVP,265,260,-1.89%
843,ChannelAdvisor,channeladvisor.com,http://www.linkedin.com/company/channeladvisor,Morrisville,NC,,919-228-4700,,,NEA/Blue Sky,822,808,-1.70%
844,AlienVault USM,alienvault.com,http://www.linkedin.com/company/alienvault,San Mateo,CA,,650.713.3333,,,IVP/Trident,367,360,-1.91%
845,MicroMain CMMS,micromain.com,http://www.linkedin.com/company/micromain-corporation,Austin,TX,,512-328-3235,,,,48,47,-2.08%
846,Fishbowl Inventory,fishbowlinventory.com,http://www.linkedin.com/company/fishbowl,Orem,UT,,,,,,144,141,-2.08%
847,ConnectAndSell,connectandsell.com,http://www.linkedin.com/company/connectandsell-inc,San Mateo,CA,,888-240-7377,,,,93,91,-2.15%
848,retreavor,retreavor.com,https://www.linkedin.com/company/retriever,Toronto,ON,,,,,,191,187,-2.09%
849,CloudCherry,getcloudcherry.com,https://www.linkedin.com/company/cloudcherry,Salt Lake City,UT,,,,,IDG/Vertez,92,90,-2.17%
850,Adaptive Insights,adaptiveinsights.com,http://www.linkedin.com/company/adaptive-insights,Palo Alto,CA,,650-528-7500,,,Bessemer/Norwest,561,550,-1.96%
851,MessageGears,messagegears.com,http://www.linkedin.com/company/messagegears-llc,Atlanta,GA,,866-611-9844,,,,45,44,-2.22%
852,DataXu,dataxu.com,http://www.linkedin.com/company/dataxu,Boston,MA,,857-244-6200,,,Sky/Thomvest,383,375,-2.09%
853,PageFreezer,pagefreezer.com,http://www.linkedin.com/company/pagefreezer-software-inc-,Vancouver,BC,,888-916-3999,,,,43,42,-2.33%
854,Kooomo,Kooomo.com,https://www.linkedin.com/company/kooomo,Dublin,IRE,,,,,,43,42,-2.33%
855,KiSSFLOW,kissflow.com,https://www.linkedin.com/company/kissflow,Chennai,TN,,650-394-7227,,,,42,41,-2.38%
856,A2Z,a2zinc.net,http://www.linkedin.com/company/a2z-inc,Columbia,MD,,410-740-9200,,,,171,167,-2.34%
857,Convertkit,convertkit.com,https://www.linkedin.com/company/convertkit,,,,866- 800- 0363,,https://convertkit.baremetrics.com/stats/arr,,41,40,-2.44%
858,Maitre'D,maitredpos.com,http://www.linkedin.com/company/posera,Seattle,WA,,206-364-8686,,,,81,79,-2.47%
859,SmashFly,smashfly.com,http://www.linkedin.com/company/smashfly-technologies,Concord,MA,,888-282-3092,,,,162,158,-2.47%
860,Igloo,igloosoftware.com,http://www.linkedin.com/company/igloo-software,Kitchener,ON,,519.885.2444,,,,161,157,-2.48%
861,GoodData,gooddata.com,http://www.linkedin.com/company/gooddata,San Francisco,CA,,415-200-0186,,,Intel/Andreessen,337,329,-2.37%
862,Advanced Solutions International,advsol.com,http://www.linkedin.com/company/advanced-solutions-international-inc.,Alexandria,VA,,,,,,200,195,-2.50%
863,Percolate,percolate.com,http://www.linkedin.com/company/percolate-inc,New York,NY,,646-586-9878,,,Lightspeed/Sequoia,230,224,-2.61%
864,Triniti,triniti.com,http://www.linkedin.com/company/triniti-corporation,San Jose,CA,,858-780-0183,,,,353,344,-2.55%
865,AdHawk,adhawk.com,https://www.linkedin.com/company/adhawk/,New York,NY,USA,508) 863-6524,,,Techstars,73,71,-2.74%
866,Carlson Civil,carlsonsw.com,http://www.linkedin.com/company/carlson-software,Maysville,KY,,606.564.5028,,,,111,108,-2.70%
867,Zenefits,zenefits.com,http://www.linkedin.com/company/zenefits,San Francisco,CA,,888.249.3263,,,Y Combinator/Andreessen Horowitz,659,643,-2.43%
868,Libris,libris.photoshelter.com,https://www.linkedin.com/company/photoshelter,New York,NY,,212 206 0808,,,,108,105,-2.78%
869,Engagio,engagio.com,http://www.linkedin.com/company/engagio,San Mateo,CA,,650.487.2050,,,Storm/Norwest,69,67,-2.90%
870,MarcomCentral,marcom.com,http://www.linkedin.com/company/marcomcentral,Solana Beach,CA,,,,,,105,102,-2.86%
871,Moxie,gomoxie.com,http://www.linkedin.com/company/moxie,San Bruno,CA,,800.474.1149,,,,136,132,-2.94%
872,Liquid Web,liquidweb.com,http://www.linkedin.com/company/liquid-web,Lansing,MI,,800.580.4985,,,Madison Dearborn,443,431,-2.71%
873,Affinity Photo,affinity.serif.com,https://www.linkedin.com/company/serif-europe-limited,Wirral,ENG,,44 (0) 115 914 9006,,,,67,65,-2.99%
874,Maintenance Connection,maintenanceconnection.com,http://www.linkedin.com/company/maintenance-connection-inc.,Davis,CA,,888-567-3434,,,,101,98,-2.97%
875,SkillSurvey,skillsurvey.com,http://www.linkedin.com/company/skillsurvey,Berwyn,PA,,610-947-6300,,,,99,96,-3.03%
876,Jostle,jostle.me,https://www.linkedin.com/company/jostle-corporation,Vancouver,BC,,604-566-9520,,,,65,63,-3.08%
877,4C,4Cinsights.com,http://www.linkedin.com/company/4c-insights,Chicago,IL,,312-670-2400,,,Kayne/Jump,234,227,-2.99%
878,InsideView,insideview.com,http://www.linkedin.com/company/insideview-inc,San Francisco,CA,,415-728-9300,,,Foundation/Emergence,305,296,-2.95%
879,Chef,chef.io,https://www.linkedin.com/company/chef-software,Seattle,WA,,,,,Draper/Battery,332,322,-3.01%
880,Syncplicity,syncplicity.com,http://www.linkedin.com/company/syncplicity,Santa Clara,CA,,888.908.4276,,,,62,60,-3.23%
881,Dundas BI,dundas.com,http://www.linkedin.com/company/dundas-data-visualization-inc-,Toronto,ON,,416.467.5100,,,,62,60,-3.23%
882,SparkPost,sparkpost.com,http://www.linkedin.com/company/sparkpost,San Francisco,CA,,877-887-3031,,,Square 1/NewSpring,296,287,-3.04%
883,SugarCRM,sugarcrm.com,http://www.linkedin.com/company/sugarcrm,Cupertino,CA,,408-454-6900,,,Draper/NEA,422,409,-3.08%
884,WizIQ LMS,wiziq.com,http://www.linkedin.com/company/wiziq,Gurugram,,,,,,Kaizen,249,241,-3.21%
885,Sift Science,siftscience.com,https://www.linkedin.com/company/sift-science,San Francisco,CA,USA,,,,Y Combinator,185,179,-3.24%
886,Brightcove,brightcove.com,http://www.linkedin.com/company/brightcove,Boston,MA,,617-500-4947,,,Accel/Maverick,577,559,-3.12%
887,MindJet,mindjet.com,http://www.linkedin.com/company/mindjet,Pleasanton,CA,,415-229-4200,,,,113,109,-3.54%
888,Bluehost,bluehost.com,https://www.linkedin.com/company/bluehost-com/,Orem,UT,,801-765-9400,,,,283,273,-3.53%
889,ResponseTap,responsetap.com,http://www.linkedin.com/company/responsetap-limited,Manchester,,,800-138-7600,,,,81,78,-3.70%
890,TIBCO Spotfire,spotfire.tibco.com,http://www.linkedin.com/company/tibco-spotfire,Boston,MA,,617.702.1600,,,,186,179,-3.76%
891,Expensify,expensify.com,http://www.linkedin.com/company/expensify,San Francisco,CA,,800-745-9064,,,,156,150,-3.85%
892,Artesian Solutions,artesian.co,https://www.linkedin.com/company/artesian-solutions,Winnersh,ENG,,44 330 321 0101,,,,50,48,-4.00%
893,Optymyze,optymyze.com,http://www.linkedin.com/company/optymyze        ,,,,214-432-0633,,,Bootstrapped,631,609,-3.49%
894,Contently,contently.com,http://www.linkedin.com/company/contently,New York,NY,,888-301-1002,,,,206,198,-3.88%
895,Teamleader,teamleader.eu,https://www.linkedin.com/company/teamleader/,Ghent,EF,BEL,32 9 298 06 15,,,,179,172,-3.91%
896,Satmetrix,satmetrix.com,https://www.linkedin.com/company/satmetrix-systems,Redwood City,CA,,650-227-8300,,,Sutter Hill/Stanford,176,169,-3.98%
897,Talkable,Talkable.com,https://www.linkedin.com/company/talkable,San Francisco,CA,,,,,Y Combinator,73,70,-4.11%
898,Critical Mention,criticalmention.com,http://www.linkedin.com/company/critical-mention,New York,NY,,212-398-1141,,,,73,70,-4.11%
899,Viber,viber.com,http://www.linkedin.com/company/viber-media-inc-,San Mateo,CA,,949.389.2000,,,,393,378,-3.82%
900,Fond,fond.co,https://www.linkedin.com/company/fond,San Francisco,CA,,415-969-6563,,,DCM/FundersClub,48,46,-4.17%
901,TrackMaven,trackmaven.com,http://www.linkedin.com/company/trackmaven,Washington,DC,,425-409-9302,,,,72,69,-4.17%
902,Top Producer CRM,topproducer.com,http://www.linkedin.com/company/top-producer-systems,Richmond,,,800-830-8300,,,,249,239,-4.02%
903,Yesware,yesware.com,https://www.linkedin.com/company/yesware-inc-,Boston,MA,,855.937.9273,,,,95,91,-4.21%
904,Appcelerator,appcelerator.com,http://www.linkedin.com/company/appcelerator,Santa Clara,CA,,408-987-7000,,,,47,45,-4.26%
905,Alpha Anywhere,alphasoftware.com,http://www.linkedin.com/company/alpha-software,Burlington,MA,,781-229-4500,,,,46,44,-4.35%
906,ReachLocal,reachlocal.com,https://www.linkedin.com/company/reachlocal,Woodland Hills,CA,,,,,,968,934,-3.51%
907,HealthStream,healthstream.com,http://www.linkedin.com/company/healthstream,Nashville,TN,,615.301.3100,,,,761,733,-3.68%
908,Near,near.co,https://www.linkedin.com/company/-near/,Singapore,SI,SIN,91 080 41694080,,,Sequoia,117,112,-4.27%
909,Broadbean,broadbean.com,http://www.linkedin.com/company/broadbean-technology,Newport Beach,CA,,949.706.8560,,,,212,203,-4.25%
910,ShopKeep POS,shopkeep.com,http://www.linkedin.com/company/shopkeep-pos,New York,NY,,800-820-9814,,,,262,251,-4.20%
911,Nextpoint,nextpoint.com,http://www.linkedin.com/company/nextpoint,Chicago,IL,,773-929-4000,,,,45,43,-4.44%
912,3CX Phone System,3cx.com,http://www.linkedin.com/company/3cx,Duluth,GA,,404-465-3660,,,,114,109,-4.39%
913,Octopus Deploy,octopus.com,https://www.linkedin.com/company/octopus-com,London,UK,,650.213.5770,,,,44,42,-4.55%
914,WebCEO,webceo.com,http://www.linkedin.com/company/web-ceo,London,UK,,44-800-404-8180,,,,66,63,-4.55%
915,Quantcast,quantcast.com,http://www.linkedin.com/company/quantcast,San Francisco,CA,,415-738-4755,,,CISCO/Polaris,840,808,-3.81%
916,BrightEdge,brightedge.com,http://www.linkedin.com/company/brightedge,San Mateo,CA,,650-627-3500,,,IVP/Battery,431,413,-4.18%
917,VidyoWorks,vidyo.com,http://www.linkedin.com/company/vidyo,Hackensack,NJ,,201.289.8597,,,Menlo/RHO,252,241,-4.37%
918,Klout,klout.com,http://www.linkedin.com/company/klout,San Francisco,CA,,415-520-3951,,,,43,41,-4.65%
919,Ad-Aware,adaware.com,https://www.linkedin.com/company/official-adaware,Montreal,QC,,,,,,43,41,-4.65%
920,ALEKS,aleks.com,http://www.linkedin.com/company/aleks-corporation,Irvine,CA,,714-245-7191,,,,110,105,-4.55%
921,Newforma,newforma.com,http://www.linkedin.com/company/newforma,Manchester,UK,,,,,,178,170,-4.49%
922,Imperva Incapsula,incapsula.com,https://www.linkedin.com/company/incapsula/,Redwood City,CA,,866.250.7659,,,,201,192,-4.48%
923,Siteimprove,siteimprove.com,http://www.linkedin.com/company/siteimprove,Minneapolis,MN,,855.748.3467,,,,565,541,-4.25%
924,HotSchedules,hotschedules.com,http://www.linkedin.com/company/hotschedules,Austin,TX,,512-219-1492,,,,447,427,-4.47%
925,eventmobi,eventmobi.com,http://www.linkedin.com/company/eventmobi,Toronto,ON,,416-915-4393,,,Bootstrapped,81,77,-4.94%
926,Targetprocess,targetprocess.com,https://www.linkedin.com/company/targetprocess-inc-,Buffalo,NY,,877.718.2617,,,,101,96,-4.95%
927,Logi Analytics,logianalytics.com,http://www.linkedin.com/company/logixml,Mc Lean,VA,,703-752-9700,,,,200,190,-5.00%
928,Amber Road,amberroad.com,http://www.linkedin.com/company/amber-road,East Rutherford,NJ,,201-935-8588,,,Cross Atlantic,647,618,-4.48%
929,Lithium Platform,lithium.com,http://www.linkedin.com/company/lithium-technologies,San Francisco,CA,,415-757-3100,,,NEA/Benchmark/Emergence,619,591,-4.52%
930,PCA Predict,pcapredict.com,http://www.linkedin.com/company/postcode-anywhere,Bellevue,WA,,866-838-9075,,,,135,128,-5.19%
931,eZ Platform,ez.no,https://www.linkedin.com/company/ez-systems,Porsgrunn,,,47 35 58 70 20,,,,114,108,-5.26%
932,Jelli,jelli.com,https://www.linkedin.com/company/jelli-inc/,San Mateo,CA,,,,,,56,53,-5.36%
933,Curalate,curalate.com,http://www.linkedin.com/company/curalate/,Philadelphia,PA,,855-223-1459,,,,112,106,-5.36%
934,Green Cloud,gogreencloud.com,http://www.linkedin.com/company/green-cloud-technologies-inc-,Greenville,SC,,864-214-0913,,,,74,70,-5.41%
935,Traackr,traackr.com,http://www.linkedin.com/company/traackr,San Francisco,CA,,855-872-2253,,,,71,67,-5.63%
936,GotPrint,gotprint.com,http://www.linkedin.com/company/gotprint,Burbank,CA,,818-252-3000,,,,126,119,-5.56%
937,SurveyGizmo,surveygizmo.com,http://www.linkedin.com/company/survey-gizmo,Boulder,CO,,720-496-2990,,https://www.successharbor.com/get-270000-customers/,Bill Flagg,106,100,-5.66%
938,Lotame,Lotame.com,http://www.linkedin.com/company/lotame,Columbia,MD,,,,,Sozo/Emergence,142,134,-5.63%
939,Onshape,onshape.com,http://www.linkedin.com/company/onshape-inc,Cambridge,MA,,617-674-1860,,,,105,99,-5.71%
940,InfusionSoft,infusionsoft.com,http://www.linkedin.com/company/infusionsoft,Chandler,AZ,,480-499-6500,,,Bain/Mohr,709,673,-5.08%
941,SailThru,sailthru.com,http://www.linkedin.com/company/sailthru,New York,NY,,,,,,172,162,-5.81%
942,Telmetrics,telmetrics.com,http://www.linkedin.com/company/telmetrics,Mississauga,ON,,905-219-8200,,,,84,79,-5.95%
943,Changepoint,changepoint.com,http://www.linkedin.com/company/changepoint,Seattle,WA,,313.227.7300,,,,208,196,-5.77%
944,PageUp,pageup.com,https://www.linkedin.com/company/pageup/,Melbourne,VIC,AUS,61 (0)3 8677 3777,,,Battery Ventures,225,212,-5.78%
945,Vidyard,vidyard.com,http://www.linkedin.com/company/vidyard,Kitchener,ON,,226.647.0993,,,Y Combinator/Bessemer/Battery,242,228,-5.79%
946,On-Site,on-site.com,https://www.linkedin.com/company/on-site-com,Campbell,CA,,866-266-7483,,,,133,125,-6.02%
947,Clicktale,clicktale.com,http://www.linkedin.com/company/clicktale,Houston,TX,,415-651-4291,,,KKR/Amadeaus,293,276,-5.80%
948,LiveIntent,LiveIntent.com,https://www.linkedin.com/company/liveintent-inc-,New York,NY,,,,,,182,171,-6.04%
949,UXPin,uxpin.com,http://www.linkedin.com/company/uxpin,Mountain View,CA,,,,,,64,60,-6.25%
950,Domo,domo.com,https://www.linkedin.com/company/domo-inc-,American Fork,UT,,801-899-1000,,,Blackrock/IVP,1010,959,-5.05%
951,Media Temple,mediatemple.net,http://www.linkedin.com/company/media-temple,Los Angeles,CA,,310-841-5500,,,,163,153,-6.13%
952,SnapLogic,snaplogic.com,https://www.linkedin.com/company/snaplogic,San Mateo,CA,,888-494-1570,,,,179,168,-6.15%
953,Yammer,yammer.com,http://www.linkedin.com/company/yammer-inc,San Francisco,CA,,415.796.7401,,,,144,135,-6.25%
954,Rubicon Project,rubiconproject.com,http://www.linkedin.com/company/the-rubicon-project,Playa Vista,CA,,310-207-0272,,,Mayfield/Clearstone,527,497,-5.69%
955,MediaValet,mediavalet.com,http://www.linkedin.com/company/mediavalet,Vancouver,BC,,877.688.2321,,,,47,44,-6.38%
956,inDinero,indinero.com,https://www.linkedin.com/company/indinero,San Francisco,CA,USA,,,,Y Combinator,152,142,-6.58%
957,Treehouse,teamtreehouse.com,http://www.linkedin.com/company/treehouse-island-inc-,Orlando,FL,,,,https://growtheverywhere.com/growth-everywhere-interview/ryan-carson/,,167,156,-6.59%
958,Miva,miva.com,https://www.linkedin.com/company/miva-merchant,San Diego,CA,,,,,,120,112,-6.67%
959,Onstream Webinars,onstreammedia.com,http://www.linkedin.com/company/onstream-media,Pompano Beach,FL,,954.917.6655,,,,59,55,-6.78%
960,Nexonia Expenses,nexonia.com,http://www.linkedin.com/company/nexonia-inc-,Toronto,ON,,416-480-0688,,,,72,67,-6.94%
961,Vision Critical,visioncritical.com,http://www.linkedin.com/company/vision-critical,Vancouver,BC,,604-647-1980,,,Georgian Partners,622,584,-6.11%
962,Prezi,prezi.com,http://www.linkedin.com/company/prezi,San Francisco,CA,,415.398.8012,,,Accel/Sunstone,370,346,-6.49%
963,Brightidea,Brightidea.com,http://www.linkedin.com/company/brightidea,San Francisco,CA,,,,,,85,79,-7.06%
964,Ceterus,Ceterus.com,https://www.linkedin.com/company/ceterus/,Charleston,SC,,,,,,143,133,-6.99%
965,timetrade,timetrade.com,https://www.linkedin.com/company/timetrade-systems-inc.,Tewksbury,MA,,978.654.6800,,,,112,104,-7.14%
966,SiteSpect,sitespect.com,https://www.linkedin.com/company/sitespect-inc-,Boston,MA,,617.859.1900,,,,81,75,-7.41%
967,VNC Connect,realvnc.com,http://www.linkedin.com/company/realvnc,Cambridge,UK,,44-800-888-6410,,,,95,88,-7.37%
968,Skyword,skyword.com,https://www.linkedin.com/company/skyword-inc-,Boston,MA,,855-759-9673,,,Cox Media,330,307,-6.97%
969,SiteCompli,SiteCompli.com,https://www.linkedin.com/company/sitecompli,New York,NY,USA,,,,DMGT,66,61,-7.58%
970,Brandwatch,brandwatch.com,http://www.linkedin.com/company/brandwatch,Brighton,UK,,44-127-323-4290,,,Partech/Nauta,445,414,-6.97%
971,Technolutions Slate,technolutions.com,http://www.linkedin.com/company/technolutions,New Haven,CT,,,,,,52,48,-7.69%
972,DialogTech,dialogtech.com,http://www.linkedin.com/company/dialogtech,Chicago,IL,,,,,,200,185,-7.50%
973,Askuity,askuity.com,https://www.linkedin.com/company/askuity,Toronto,ON,,416-583-5830,,,dunnhumby,51,47,-7.84%
974,Confluence,Confluence.com,http://www.linkedin.com/company/confluence-technologies,Pittsburgh,PA,,,,,Polaris,323,299,-7.43%
975,Maximizer Software,maximizer.com,https://www.linkedin.com/company/maximizer-software-inc,Vancouver,BC,,604-601-8000,,,,155,143,-7.74%
976,Wyng,wyng.com,https://www.linkedin.com/company/wyng,New York,NY,,646.435.0555,,,,50,46,-8.00%
977,FieldAware,fieldaware.com,http://www.linkedin.com/company/fieldaware,Plano,TX,,972-704-1266,,,,88,81,-7.95%
978,Evergage,evergage.com,http://www.linkedin.com/company/evergage,Somerville,MA,,(888) 310-0589,,,Arrowroot/G20,101,93,-7.92%
979,PaySimple,paysimple.com,http://www.linkedin.com/company/paysimple,Denver,CO,,800.466.0992,,,Providence/Susquehanna,114,105,-7.89%
980,Synthesio,synthesio.com,http://www.linkedin.com/company/synthesio,New York,NY,,646-760-0000,,,,139,128,-7.91%
981,Marchex,marchex.com,http://www.linkedin.com/company/marchex,Seattle,WA,,,,,,272,251,-7.72%
982,Marketwired,marketwired.com,http://www.linkedin.com/company/marketwired,Toronto,ON,,,,,,124,114,-8.06%
983,Searchmetrics,searchmetrics.com,http://www.linkedin.com/company/searchmetrics-inc,San Mateo,CA,,866-411-9494,,,,223,205,-8.07%
984,SitePoint Premium,sitepoint.com,http://www.linkedin.com/company/sitepoint,Collingwood,,,,,,,71,65,-8.45%
985,Arcadia Data,arcadiadata.com,https://www.linkedin.com/company/arcadia-data-inc-,San Mateo,CA,,415-680-3535,,,Mayfield,71,65,-8.45%
986,MapR,mapr.com,http://www.linkedin.com/company/mapr-technologies,San Jose,CA,,408-914-2390,,,SVB,549,507,-7.65%
987,GenieBelt,geniebelt.com,https://www.linkedin.com/company/geniebelt,Copenhagen,DEN,,,,,Solar,58,53,-8.62%
988,Spiceworks,spiceworks.com,http://www.linkedin.com/company/spiceworks,Austin,TX,,512-346-7743,,,IVP/Austin,389,358,-7.97%
989,9Lenses,9Lenses.com,http://www.linkedin.com/company/9lenses,Vienna,VA,,,,,CEB/Kinetic,46,42,-8.70%
990,DoubleDutch,doubledutch.me,http://www.linkedin.com/company/doubledutch,San Francisco,CA,,,,,,92,84,-8.70%
991,Insightly,insightly.com,http://www.linkedin.com/company/insightly,San Francisco,CA,,888-999-4039,,,Emergence/Cloud Apps,152,139,-8.55%
992,Photobucket,photobucket.com,http://www.linkedin.com/company/photobucket,Denver,CO,,,,,,92,84,-8.70%
993,Recruiterbox,recruiterbox.com,http://www.linkedin.com/company/recruiterbox.com,San Francisco,CA,,415-758-2012,,,,45,41,-8.89%
994,Shmoop,shmoop.com,http://www.linkedin.com/company/shmoop,Los Altos,CA,,,,,,136,124,-8.82%
995,Apto,apto.com,https://www.linkedin.com/company/apto-crm,Denver,CO,,720-669-1055,,,Mercury/Adams,89,81,-8.99%
996,IQNavigator,beeline.com,https://www.linkedin.com/company/iqnavigator,Centennial,CO,,,,,Baker/Sequel,143,130,-9.09%
997,Classy,classy.org,http://www.linkedin.com/company/stayclassy,San Diego,CA,,619-961-1892,,,,284,259,-8.80%
998,TINYpulse Engage,tinypulse.com,http://www.linkedin.com/company/tinyhr,Seattle,WA,,206.489.2523,,,,119,108,-9.24%
999,Code42,code42.com,https://www.linkedin.com/company/code-42-software-inc,Minneapolis,MN,,612.333.4242,,,NEA/Accel,562,515,-8.36%
1000,Northplains Telescope,northplains.com,https://www.linkedin.com/company/north-plains-systems,Toronto,ON,,416.345.1900,,,,63,57,-9.52%
,,,,,,,,,,,,,
,,,,,,,,,,,,,
,,,,,,,,,,,,,
,,,,,,,,,,,,,
,,,,,,,,,,,,,
,,,,,,,,,,,,,
,,,,,,,,,,,,,
,,,,,,,,,,,,,
,,,,,,,,,,,,,
,,,,,,,,,,,,,
,,,,,,,,,,,,,
,,,,,,,,,,,,,
,,,,,,,,,,,,,
,,,,,,,,,,,,,
,,,,,,,,,,,,,
,,,,,,,,,,,,,
,,,,,,,,,,,,,
,,,,,,,,,,,,,
,,,,,,,,,,,,,
,,,,,,,,,,,,,
,,,,,,,,,,,,,
,,,,,,,,,,,,,
,,,,,,,,,,,,,
,,,,,,,,,,,,,
,,,,,,,,,,,,,
,,,,,,,,,,,,,
,,,,,,,,,,,,,
,,,,,,,,,,,,,
,,,,,,,,,,,,,
,,,,,,,,,,,,,
,,,,,,,,,,,,,
,,,,,,,,,,,,,
,,,,,,,,,,,,,
,,,,,,,,,,,,,
,,,,,,,,,,,,,
,,,,,,,,,,,,,
,,,,,,,,,,,,,
,,,,,,,,,,,,,
,,,,,,,,,,,,,
,,,,,,,,,,,,,
,,,,,,,,,,,,,
,,,,,,,,,,,,,
,,,,,,,,,,,,,
,,,,,,,,,,,,,
,,,,,,,,,,,,,
,,,,,,,,,,,,,
,,,,,,,,,,,,,
,,,,,,,,,,,,,
,,,,,,,,,,,,,
,,,,,,,,,,,,,
,,,,,,,,,,,,,
,,,,,,,,,,,,,
,,,,,,,,,,,,,
,,,,,,,,,,,,,
,,,,,,,,,,,,,
,,,,,,,,,,,,,
,,,,,,,,,,,,,
,,,,,,,,,,,,,
,,,,,,,,,,,,,
,,,,,,,,,,,,,
,,,,,,,,,,,,,
,,,,,,,,,,,,,
,,,,,,,,,,,,,
,,,,,,,,,,,,,
,,,,,,,,,,,,,
,,,,,,,,,,,,,
,,,,,,,,,,,,,
,,,,,,,,,,,,,
,,,,,,,,,,,,,
,,,,,,,,,,,,,
,,,,,,,,,,,,,
,,,,,,,,,,,,,
,,,,,,,,,,,,,
,,,,,,,,,,,,,
,,,,,,,,,,,,,
,,,,,,,,,,,,,
,,,,,,,,,,,,,
,,,,,,,,,,,,,
,,,,,,,,,,,,,
,,,,,,,,,,,,,
,,,,,,,,,,,,,
,,,,,,,,,,,,,
,,,,,,,,,,,,,
,,,,,,,,,,,,,
,,,,,,,,,,,,,
,,,,,,,,,,,,,
,,,,,,,,,,,,,
,,,,,,,,,,,,,
,,,,,,,,,,,,,
,,,,,,,,,,,,,
,,,,,,,,,,,,,
,,,,,,,,,,,,,
,,,,,,,,,,,,,
,,,,,,,,,,,,,
,,,,,,,,,,,,,
,,,,,,,,,,,,,
,,,,,,,,,,,,,
,,,,,,,,,,,,,
,,,,,,,,,,,,,
,,,,,,,,,,,,,
,,,,,,,,,,,,,
,,,,,,,,,,,,,
,,,,,,,,,,,,,
,,,,,,,,,,,,,
,,,,,,,,,,,,,
,,,,,,,,,,,,,
,,,,,,,,,,,,,
,,,,,,,,,,,,,
,,,,,,,,,,,,,
,,,,,,,,,,,,,
,,,,,,,,,,,,,
,,,,,,,,,,,,,
,,,,,,,,,,,,,
,,,,,,,,,,,,,
,,,,,,,,,,,,,
,,,,,,,,,,,,,
,,,,,,,,,,,,,
,,,,,,,,,,,,,
,,,,,,,,,,,,,
,,,,,,,,,,,,,
,,,,,,,,,,,,,
,,,,,,,,,,,,,
,,,,,,,,,,,,,
,,,,,,,,,,,,,
,,,,,,,,,,,,,
,,,,,,,,,,,,,
,,,,,,,,,,,,,
,,,,,,,,,,,,,
,,,,,,,,,,,,,
,,,,,,,,,,,,,
,,,,,,,,,,,,,
,,,,,,,,,,,,,
,,,,,,,,,,,,,
,,,,,,,,,,,,,
,,,,,,,,,,,,,
,,,,,,,,,,,,,
,,,,,,,,,,,,,
,,,,,,,,,,,,,
,,,,,,,,,,,,,
,,,,,,,,,,,,,
,,,,,,,,,,,,,
,,,,,,,,,,,,,
,,,,,,,,,,,,,
,,,,,,,,,,,,,
,,,,,,,,,,,,,
,,,,,,,,,,,,,
,,,,,,,,,,,,,
,,,,,,,,,,,,,
,,,,,,,,,,,,,
,,,,,,,,,,,,,
,,,,,,,,,,,,,
,,,,,,,,,,,,,
,,,,,,,,,,,,,
,,,,,,,,,,,,,
,,,,,,,,,,,,,
,,,,,,,,,,,,,
,,,,,,,,,,,,,
,,,,,,,,,,,,,
,,,,,,,,,,,,,
,,,,,,,,,,,,,
,,,,,,,,,,,,,
,,,,,,,,,,,,,
,,,,,,,,,,,,,
,,,,,,,,,,,,,
,,,,,,,,,,,,,
,,,,,,,,,,,,,
,,,,,,,,,,,,,
,,,,,,,,,,,,,
,,,,,,,,,,,,,
,,,,,,,,,,,,,
,,,,,,,,,,,,,
,,,,,,,,,,,,,
,,,,,,,,,,,,,
,,,,,,,,,,,,,
,,,,,,,,,,,,,
,,,,,,,,,,,,,
,,,,,,,,,,,,,
,,,,,,,,,,,,,
,,,,,,,,,,,,,
,,,,,,,,,,,,,
,,,,,,,,,,,,,
,,,,,,,,,,,,,
,,,,,,,,,,,,,
,,,,,,,,,,,,,
,,,,,,,,,,,,,
,,,,,,,,,,,,,
,,,,,,,,,,,,,
,,,,,,,,,,,,,
,,,,,,,,,,,,,
,,,,,,,,,,,,,
,,,,,,,,,,,,,
,,,,,,,,,,,,,
,,,,,,,,,,,,,
,,,,,,,,,,,,,
,,,,,,,,,,,,,
,,,,,,,,,,,,,
,,,,,,,,,,,,,
,,,,,,,,,,,,,
,,,,,,,,,,,,,
,,,,,,,,,,,,,
,,,,,,,,,,,,,
,,,,,,,,,,,,,
,,,,,,,,,,,,,
,,,,,,,,,,,,,
,,,,,,,,,,,,,
,,,,,,,,,,,,,
,,,,,,,,,,,,,
,,,,,,,,,,,,,
,,,,,,,,,,,,,
,,,,,,,,,,,,,
,,,,,,,,,,,,,
,,,,,,,,,,,,,
,,,,,,,,,,,,,
,,,,,,,,,,,,,
,,,,,,,,,,,,,
,,,,,,,,,,,,,
,,,,,,,,,,,,,
,,,,,,,,,,,,,
,,,,,,,,,,,,,
,,,,,,,,,,,,,
,,,,,,,,,,,,,
,,,,,,,,,,,,,
,,,,,,,,,,,,,
,,,,,,,,,,,,,
,,,,,,,,,,,,,
,,,,,,,,,,,,,
,,,,,,,,,,,,,
,,,,,,,,,,,,,
,,,,,,,,,,,,,
,,,,,,,,,,,,,
,,,,,,,,,,,,,
,,,,,,,,,,,,,
,,,,,,,,,,,,,
,,,,,,,,,,,,,
,,,,,,,,,,,,,
,,,,,,,,,,,,,
,,,,,,,,,,,,,
,,,,,,,,,,,,,
,,,,,,,,,,,,,
,,,,,,,,,,,,,
,,,,,,,,,,,,,
,,,,,,,,,,,,,
,,,,,,,,,,,,,
,,,,,,,,,,,,,
,,,,,,,,,,,,,
,,,,,,,,,,,,,
,,,,,,,,,,,,,
,,,,,,,,,,,,,
,,,,,,,,,,,,,
,,,,,,,,,,,,,
,,,,,,,,,,,,,
,,,,,,,,,,,,,
,,,,,,,,,,,,,
,,,,,,,,,,,,,
,,,,,,,,,,,,,
,,,,,,,,,,,,,
,,,,,,,,,,,,,
,,,,,,,,,,,,,
,,,,,,,,,,,,,
,,,,,,,,,,,,,
,,,,,,,,,,,,,
,,,,,,,,,,,,,
,,,,,,,,,,,,,
,,,,,,,,,,,,,
,,,,,,,,,,,,,
,,,,,,,,,,,,,
,,,,,,,,,,,,,
,,,,,,,,,,,,,
,,,,,,,,,,,,,
,,,,,,,,,,,,,
,,,,,,,,,,,,,
,,,,,,,,,,,,,
,,,,,,,,,,,,,
,,,,,,,,,,,,,
,,,,,,,,,,,,,
,,,,,,,,,,,,,
,,,,,,,,,,,,,
,,,,,,,,,,,,,
,,,,,,,,,,,,,
,,,,,,,,,,,,,
,,,,,,,,,,,,,
,,,,,,,,,,,,,
,,,,,,,,,,,,,
,,,,,,,,,,,,,
,,,,,,,,,,,,,
,,,,,,,,,,,,,
,,,,,,,,,,,,,
,,,,,,,,,,,,,
,,,,,,,,,,,,,
,,,,,,,,,,,,,
,,,,,,,,,,,,,
,,,,,,,,,,,,,
,,,,,,,,,,,,,
,,,,,,,,,,,,,
,,,,,,,,,,,,,
,,,,,,,,,,,,,
,,,,,,,,,,,,,
,,,,,,,,,,,,,
,,,,,,,,,,,,,
,,,,,,,,,,,,,
,,,,,,,,,,,,,
,,,,,,,,,,,,,
,,,,,,,,,,,,,
,,,,,,,,,,,,,
,,,,,,,,,,,,,
,,,,,,,,,,,,,
,,,,,,,,,,,,,
,,,,,,,,,,,,,
,,,,,,,,,,,,,
,,,,,,,,,,,,,
,,,,,,,,,,,,,
,,,,,,,,,,,,,
,,,,,,,,,,,,,
,,,,,,,,,,,,,
,,,,,,,,,,,,,
,,,,,,,,,,,,,
,,,,,,,,,,,,,
,,,,,,,,,,,,,
,,,,,,,,,,,,,
,,,,,,,,,,,,,
,,,,,,,,,,,,,
,,,,,,,,,,,,,
,,,,,,,,,,,,,
,,,,,,,,,,,,,
,,,,,,,,,,,,,
,,,,,,,,,,,,,
,,,,,,,,,,,,,
,,,,,,,,,,,,,
,,,,,,,,,,,,,
,,,,,,,,,,,,,
,,,,,,,,,,,,,
,,,,,,,,,,,,,
,,,,,,,,,,,,,
,,,,,,,,,,,,,
,,,,,,,,,,,,,
,,,,,,,,,,,,,
,,,,,,,,,,,,,
,,,,,,,,,,,,,
,,,,,,,,,,,,,
,,,,,,,,,,,,,
,,,,,,,,,,,,,
,,,,,,,,,,,,,
,,,,,,,,,,,,,
,,,,,,,,,,,,,
,,,,,,,,,,,,,
,,,,,,,,,,,,,
,,,,,,,,,,,,,
,,,,,,,,,,,,,
,,,,,,,,,,,,,
,,,,,,,,,,,,,
,,,,,,,,,,,,,
,,,,,,,,,,,,,
,,,,,,,,,,,,,
,,,,,,,,,,,,,
,,,,,,,,,,,,,
,,,,,,,,,,,,,
,,,,,,,,,,,,,
,,,,,,,,,,,,,
,,,,,,,,,,,,,
,,,,,,,,,,,,,
,,,,,,,,,,,,,
,,,,,,,,,,,,,
,,,,,,,,,,,,,
,,,,,,,,,,,,,
,,,,,,,,,,,,,
,,,,,,,,,,,,,
,,,,,,,,,,,,,
,,,,,,,,,,,,,
,,,,,,,,,,,,,
,,,,,,,,,,,,,
,,,,,,,,,,,,,
,,,,,,,,,,,,,
,,,,,,,,,,,,,
,,,,,,,,,,,,,
,,,,,,,,,,,,,
,,,,,,,,,,,,,
,,,,,,,,,,,,,
,,,,,,,,,,,,,
,,,,,,,,,,,,,
,,,,,,,,,,,,,
,,,,,,,,,,,,,
,,,,,,,,,,,,,
,,,,,,,,,,,,,
,,,,,,,,,,,,,
,,,,,,,,,,,,,
,,,,,,,,,,,,,
,,,,,,,,,,,,,
,,,,,,,,,,,,,
,,,,,,,,,,,,,
,,,,,,,,,,,,,
,,,,,,,,,,,,,
,,,,,,,,,,,,,
,,,,,,,,,,,,,
,,,,,,,,,,,,,
,,,,,,,,,,,,,
,,,,,,,,,,,,,
,,,,,,,,,,,,,
,,,,,,,,,,,,,
,,,,,,,,,,,,,
,,,,,,,,,,,,,
,,,,,,,,,,,,,
,,,,,,,,,,,,,
,,,,,,,,,,,,,
,,,,,,,,,,,,,
,,,,,,,,,,,,,
,,,,,,,,,,,,,
,,,,,,,,,,,,,
,,,,,,,,,,,,,
,,,,,,,,,,,,,
,,,,,,,,,,,,,
,,,,,,,,,,,,,
,,,,,,,,,,,,,
,,,,,,,,,,,,,
,,,,,,,,,,,,,
,,,,,,,,,,,,,
,,,,,,,,,,,,,
,,,,,,,,,,,,,
,,,,,,,,,,,,,
,,,,,,,,,,,,,
,,,,,,,,,,,,,
,,,,,,,,,,,,,
,,,,,,,,,,,,,
,,,,,,,,,,,,,
,,,,,,,,,,,,,
,,,,,,,,,,,,,
,,,,,,,,,,,,,
,,,,,,,,,,,,,
,,,,,,,,,,,,,
,,,,,,,,,,,,,
,,,,,,,,,,,,,
,,,,,,,,,,,,,
,,,,,,,,,,,,,
,,,,,,,,,,,,,
,,,,,,,,,,,,,
,,,,,,,,,,,,,
,,,,,,,,,,,,,
,,,,,,,,,,,,,
,,,,,,,,,,,,,
,,,,,,,,,,,,,
,,,,,,,,,,,,,
,,,,,,,,,,,,,
,,,,,,,,,,,,,
,,,,,,,,,,,,,
,,,,,,,,,,,,,
,,,,,,,,,,,,,
,,,,,,,,,,,,,
,,,,,,,,,,,,,
,,,,,,,,,,,,,
,,,,,,,,,,,,,
,,,,,,,,,,,,,
,,,,,,,,,,,,,
,,,,,,,,,,,,,
,,,,,,,,,,,,,
,,,,,,,,,,,,,
,,,,,,,,,,,,,
,,,,,,,,,,,,,
,,,,,,,,,,,,,
,,,,,,,,,,,,,
,,,,,,,,,,,,,
,,,,,,,,,,,,,
,,,,,,,,,,,,,
,,,,,,,,,,,,,
,,,,,,,,,,,,,
,,,,,,,,,,,,,
,,,,,,,,,,,,,
,,,,,,,,,,,,,
,,,,,,,,,,,,,
,,,,,,,,,,,,,
,,,,,,,,,,,,,
,,,,,,,,,,,,,
,,,,,,,,,,,,,
,,,,,,,,,,,,,
,,,,,,,,,,,,,
,,,,,,,,,,,,,
,,,,,,,,,,,,,
,,,,,,,,,,,,,
,,,,,,,,,,,,,
,,,,,,,,,,,,,
,,,,,,,,,,,,,
,,,,,,,,,,,,,
,,,,,,,,,,,,,
,,,,,,,,,,,,,
,,,,,,,,,,,,,
,,,,,,,,,,,,,
,,,,,,,,,,,,,
,,,,,,,,,,,,,
,,,,,,,,,,,,,
,,,,,,,,,,,,,
,,,,,,,,,,,,,
,,,,,,,,,,,,,
,,,,,,,,,,,,,
,,,,,,,,,,,,,
,,,,,,,,,,,,,
,,,,,,,,,,,,,
,,,,,,,,,,,,,
,,,,,,,,,,,,,
,,,,,,,,,,,,,
,,,,,,,,,,,,,
,,,,,,,,,,,,,
,,,,,,,,,,,,,
,,,,,,,,,,,,,
,,,,,,,,,,,,,
,,,,,,,,,,,,,
,,,,,,,,,,,,,
,,,,,,,,,,,,,
,,,,,,,,,,,,,
,,,,,,,,,,,,,
,,,,,,,,,,,,,
,,,,,,,,,,,,,
,,,,,,,,,,,,,
,,,,,,,,,,,,,
,,,,,,,,,,,,,
,,,,,,,,,,,,,
,,,,,,,,,,,,,
,,,,,,,,,,,,,
,,,,,,,,,,,,,
,,,,,,,,,,,,,
,,,,,,,,,,,,,
,,,,,,,,,,,,,
,,,,,,,,,,,,,
,,,,,,,,,,,,,
,,,,,,,,,,,,,
,,,,,,,,,,,,,
,,,,,,,,,,,,,
,,,,,,,,,,,,,
,,,,,,,,,,,,,
,,,,,,,,,,,,,
,,,,,,,,,,,,,
,,,,,,,,,,,,,
,,,,,,,,,,,,,
,,,,,,,,,,,,,
,,,,,,,,,,,,,
,,,,,,,,,,,,,
,,,,,,,,,,,,,
,,,,,,,,,,,,,
,,,,,,,,,,,,,
,,,,,,,,,,,,,
,,,,,,,,,,,,,
,,,,,,,,,,,,,
,,,,,,,,,,,,,
,,,,,,,,,,,,,
,,,,,,,,,,,,,
,,,,,,,,,,,,,
,,,,,,,,,,,,,
,,,,,,,,,,,,,
,,,,,,,,,,,,,
,,,,,,,,,,,,,
,,,,,,,,,,,,,
,,,,,,,,,,,,,
,,,,,,,,,,,,,
,,,,,,,,,,,,,
,,,,,,,,,,,,,
,,,,,,,,,,,,,
,,,,,,,,,,,,,
,,,,,,,,,,,,,
,,,,,,,,,,,,,
,,,,,,,,,,,,,
,,,,,,,,,,,,,
,,,,,,,,,,,,,
,,,,,,,,,,,,,
,,,,,,,,,,,,,
,,,,,,,,,,,,,
,,,,,,,,,,,,,
,,,,,,,,,,,,,
,,,,,,,,,,,,,
,,,,,,,,,,,,,
,,,,,,,,,,,,,
,,,,,,,,,,,,,
,,,,,,,,,,,,,
,,,,,,,,,,,,,
,,,,,,,,,,,,,
,,,,,,,,,,,,,
,,,,,,,,,,,,,
,,,,,,,,,,,,,
,,,,,,,,,,,,,
,,,,,,,,,,,,,
,,,,,,,,,,,,,
,,,,,,,,,,,,,
,,,,,,,,,,,,,
,,,,,,,,,,,,,
,,,,,,,,,,,,,
,,,,,,,,,,,,,
,,,,,,,,,,,,,
,,,,,,,,,,,,,
,,,,,,,,,,,,,
,,,,,,,,,,,,,
,,,,,,,,,,,,,
,,,,,,,,,,,,,
,,,,,,,,,,,,,
,,,,,,,,,,,,,
,,,,,,,,,,,,,
,,,,,,,,,,,,,
,,,,,,,,,,,,,
,,,,,,,,,,,,,
,,,,,,,,,,,,,
,,,,,,,,,,,,,
,,,,,,,,,,,,,
,,,,,,,,,,,,,
,,,,,,,,,,,,,
,,,,,,,,,,,,,
,,,,,,,,,,,,,
,,,,,,,,,,,,,
,,,,,,,,,,,,,
,,,,,,,,,,,,,
,,,,,,,,,,,,,
,,,,,,,,,,,,,
,,,,,,,,,,,,,
,,,,,,,,,,,,,
,,,,,,,,,,,,,
,,,,,,,,,,,,,
,,,,,,,,,,,,,
,,,,,,,,,,,,,
,,,,,,,,,,,,,
,,,,,,,,,,,,,
,,,,,,,,,,,,,
,,,,,,,,,,,,,
,,,,,,,,,,,,,
,,,,,,,,,,,,,
,,,,,,,,,,,,,
,,,,,,,,,,,,,
,,,,,,,,,,,,,
,,,,,,,,,,,,,
,,,,,,,,,,,,,
,,,,,,,,,,,,,
,,,,,,,,,,,,,
,,,,,,,,,,,,,
,,,,,,,,,,,,,
,,,,,,,,,,,,,
,,,,,,,,,,,,,
,,,,,,,,,,,,,
,,,,,,,,,,,,,
